{"type": "FeatureCollection", "features": [{"id": 6168164, "type": "Feature", "geometry": {"type": "Point", "coordinates": [-73.9685894, 40.6473998]}, "properties": {"name": "Anakali", "amenity": "restaurant"}}, {"id": 12308063, "type": "Feature", "geometry": {"type": "Point", "coordinates": [-73.9696556, 40.6470247]}, "properties": {"name": "Hunger Pang", "amenity": "restaurant"}}, {"id": 1991906, "type": "Feature", "geometry": {"type": "Point", "coordinates": [-73.9705465, 40.6275251]}, "properties": {"name": "Lubavitcher School Chabad", "amenity": "school"}}, {"id": 1991904, "type": "Feature", "geometry": {"type": "Point", "coordinates": [-73.9705504, 40.6274961]}, "properties": {"name": "Lubavitcher High School", "amenity": "school"}}, {"id": 10354620, "type": "Feature", "geometry": {"type": "Point", "coordinates": [-73.9762242, 40.6268998]}, "properties": {"name": "The Little Things", "amenity": "cafe"}}, {"id": 9657595, "type": "Feature", "geometry": {"type": "Point", "coordinates": [-73.975488, 40.6313424]}, "properties": {"name": "Brooklyn Public Library - Kensington Branch", "amenity": "library"}}, {"id": 9312455, "type": "Feature", "geometry": {"type": "Point", "coordinates": [-73.9767727, 40.6307003]}, "properties": {"name": "Chase", "amenity": "bank"}}, {"id": 25313849, "type": "Feature", "geometry": {"type": "Point", "coordinates": [-73.9620589, 40.625244]}, "properties": {"name": "Walgreens", "amenity": "pharmacy"}}, {"id": 1991928, "type": "Feature", "geometry": {"type": "Point", "coordinates": [-73.9611111, 40.6238889]}, "properties": {"name": "Mesivta Zichron Eliezer", "amenity": "school"}}, {"id": 6144571, "type": "Feature", "geometry": {"type": "Point", "coordinates": [-73.9614948, 40.625047]}, "properties": {"name": "Di Fara Pizza", "amenity": "restaurant"}}, {"id": 6262401, "type": "Feature", "geometry": {"type": "Point", "coordinates": [-73.9635122, 40.6248231]}, "properties": {"name": "Citibank", "amenity": "bank"}}, {"id": 1993181, "type": "Feature", "geometry": {"type": "Point", "coordinates": [-73.9683617, 40.6351143]}, "properties": {"name": "Congregation Agudath Sholom", "amenity": "place_of_worship"}}, {"id": 8952165, "type": "Feature", "geometry": {"type": "Point", "coordinates": [-73.9678346, 40.6366473]}, "properties": {"name": "Kaleidoscope Early Childhood Development Center", "amenity": "kindergarten"}}, {"id": 5855039, "type": "Feature", "geometry": {"type": "Point", "coordinates": [-73.9670772, 40.6339977]}, "properties": {"name": "Urban Martial Arts", "amenity": "dojo"}}, {"id": 6302380, "type": "Feature", "geometry": {"type": "Point", "coordinates": [-73.9661043, 40.634329]}, "properties": {"name": "Milk and Honey", "amenity": "cafe"}}, {"id": 1991972, "type": "Feature", "geometry": {"type": "Point", "coordinates": [-73.9733333, 40.6322222]}, "properties": {"name": "Public School 134", "amenity": "school"}}, {"id": 1992084, "type": "Feature", "geometry": {"type": "Point", "coordinates": [-73.9553995, 40.615733]}, "properties": {"name": "Yeshiva Toras Emes Kamenitz", "amenity": "school"}}, {"id": 1991896, "type": "Feature", "geometry": {"type": "Point", "coordinates": [-73.9554408, 40.615865]}, "properties": {"name": "Joseph S Gruss Yeshiva High School", "amenity": "school"}}, {"id": 11652845, "type": "Feature", "geometry": {"type": "Point", "coordinates": [-73.9626816, 40.6129404]}, "properties": {"name": "Moldova", "amenity": "restaurant"}}, {"id": 1991917, "type": "Feature", "geometry": {"type": "Point", "coordinates": [-73.9627778, 40.6152778]}, "properties": {"name": "Meorot Beit Yaakov", "amenity": "school"}}, {"id": 1992057, "type": "Feature", "geometry": {"type": "Point", "coordinates": [-73.9608333, 40.62]}, "properties": {"name": "Yeshiva Birchas Shmuel", "amenity": "school"}}, {"id": 25440436, "type": "Feature", "geometry": {"type": "Point", "coordinates": [-73.9598567, 40.6181511]}, "properties": {"name": "Chase", "amenity": "bank"}}, {"id": 25857142, "type": "Feature", "geometry": {"type": "Point", "coordinates": [-73.9596559, 40.6178298]}, "properties": {"name": "Dunkin'", "amenity": "fast_food"}}, {"id": 1992074, "type": "Feature", "geometry": {"type": "Point", "coordinates": [-73.9632349, 40.6271145]}, "properties": {"name": "Yeshiva Rabbi Chaim Berlin", "amenity": "school"}}, {"id": 1993191, "type": "Feature", "geometry": {"type": "Point", "coordinates": [-73.9476037, 40.629609]}, "properties": {"name": "Beulah Tabernacle Church", "amenity": "place_of_worship"}}, {"id": 24296123, "type": "Feature", "geometry": {"type": "Point", "coordinates": [-73.9504476, 40.6352179]}, "properties": {"name": "Picky Eaters", "amenity": "restaurant"}}, {"id": 1993190, "type": "Feature", "geometry": {"type": "Point", "coordinates": [-73.9475, 40.6347221]}, "properties": {"name": "Yuruba Orisha Baptist Church", "amenity": "place_of_worship"}}, {"id": 1993188, "type": "Feature", "geometry": {"type": "Point", "coordinates": [-73.9483333, 40.6369444]}, "properties": {"name": "Bible Holiness Church", "amenity": "place_of_worship"}}, {"id": 2288960, "type": "Feature", "geometry": {"type": "Point", "coordinates": [-73.9508344, 40.6361299]}, "properties": {"name": "New York Engine Company 255", "amenity": "fire_station"}}, {"id": 1993187, "type": "Feature", "geometry": {"type": "Point", "coordinates": [-73.9505556, 40.6363889]}, "properties": {"name": "Flatlands Church of Christ", "amenity": "place_of_worship"}}, {"id": 2289052, "type": "Feature", "geometry": {"type": "Point", "coordinates": [-73.9507528, 40.6366484]}, "properties": {"name": "New York Ladder Company 157", "amenity": "fire_station"}}, {"id": 1993183, "type": "Feature", "geometry": {"type": "Point", "coordinates": [-73.9516667, 40.6380556]}, "properties": {"name": "Coney Island Wesleyan Church", "amenity": "place_of_worship"}}, {"id": 1993186, "type": "Feature", "geometry": {"type": "Point", "coordinates": [-73.9516736, 40.6369473]}, "properties": {"name": "His Grace Outreach International", "amenity": "place_of_worship"}}, {"id": 1993185, "type": "Feature", "geometry": {"type": "Point", "coordinates": [-73.9522222, 40.6375]}, "properties": {"name": "Emmanuel Church of God", "amenity": "place_of_worship"}}, {"id": 1993184, "type": "Feature", "geometry": {"type": "Point", "coordinates": [-73.9522223, 40.6377778]}, "properties": {"name": "Eglise Baptiste Redempteur", "amenity": "place_of_worship"}}, {"id": 1993189, "type": "Feature", "geometry": {"type": "Point", "coordinates": [-73.9477778, 40.6366667]}, "properties": {"name": "Norstrand Avenue Church of God", "amenity": "place_of_worship"}}, {"id": 22570714, "type": "Feature", "geometry": {"type": "Point", "coordinates": [-73.9504003, 40.6321426]}, "properties": {"name": "Topfer Library Cafe", "amenity": "cafe"}}, {"id": 25609565, "type": "Feature", "geometry": {"type": "Point", "coordinates": [-73.9479626, 40.6328265]}, "properties": {"name": "Municipal Credit Union", "amenity": "bank"}}, {"id": 10222507, "type": "Feature", "geometry": {"type": "Point", "coordinates": [-73.9512093, 40.6147292]}, "properties": {"name": "Car Lease Brooklyn LLC", "amenity": "car_rental"}}, {"id": 1991982, "type": "Feature", "geometry": {"type": "Point", "coordinates": [-73.954158, 40.6324098]}, "properties": {"name": "Public School 315", "amenity": "school"}}, {"id": 1979123, "type": "Feature", "geometry": {"type": "Point", "coordinates": [-73.9535155, 40.632632]}, "properties": {"name": "Public School 152", "amenity": "school"}}, {"id": 11533972, "type": "Feature", "geometry": {"type": "Point", "coordinates": [-73.9534093, 40.6112054]}, "properties": {"name": "Ocean Ave. Family Dental", "amenity": "dentist"}}, {"id": 5869896, "type": "Feature", "geometry": {"type": "Point", "coordinates": [-73.9538373, 40.6136948]}, "properties": {"name": "Allegiance", "amenity": "fuel"}}, {"id": 6302220, "type": "Feature", "geometry": {"type": "Point", "coordinates": [-73.9662237, 40.6291965]}, "properties": {"name": "Chandni Pizza Deli & Fried Chicken", "amenity": "restaurant"}}, {"id": 6416298, "type": "Feature", "geometry": {"type": "Point", "coordinates": [-73.9649281, 40.6246346]}, "properties": {"name": "TD Bank", "amenity": "bank"}}, {"id": 6168158, "type": "Feature", "geometry": {"type": "Point", "coordinates": [-73.9700413, 40.6468246]}, "properties": {"name": "LARK cafe", "amenity": "cafe"}}, {"id": 12308061, "type": "Feature", "geometry": {"type": "Point", "coordinates": [-73.9701103, 40.6468167]}, "properties": {"name": "Suzyâ€™s Roti Parlour", "amenity": "restaurant"}}, {"id": 6168155, "type": "Feature", "geometry": {"type": "Point", "coordinates": [-73.9701386, 40.6467857]}, "properties": {"name": "Am Thai Bistro", "amenity": "restaurant"}}, {"id": 12024222, "type": "Feature", "geometry": {"type": "Point", "coordinates": [-73.9704815, 40.6466505]}, "properties": {"name": "Wheated", "amenity": "restaurant"}}, {"id": 12024217, "type": "Feature", "geometry": {"type": "Point", "coordinates": [-73.9694357, 40.6436655]}, "properties": {"name": "Beverley Social Club", "amenity": "events_venue"}}, {"id": 12024219, "type": "Feature", "geometry": {"type": "Point", "coordinates": [-73.9698354, 40.6436268]}, "properties": {"name": "Madina", "amenity": "restaurant"}}, {"id": 15094484, "type": "Feature", "geometry": {"type": "Point", "coordinates": [-73.9697886, 40.6434182]}, "properties": {"name": "Red Mist Hookah Lounge", "amenity": "cafe"}}, {"id": 12308060, "type": "Feature", "geometry": {"type": "Point", "coordinates": [-73.9701897, 40.6452468]}, "properties": {"name": "Werkstatt", "amenity": "restaurant"}}, {"id": 10354703, "type": "Feature", "geometry": {"type": "Point", "coordinates": [-73.9694184, 40.6447108]}, "properties": {"name": "7-Eleven", "amenity": "fuel"}}, {"id": 1993175, "type": "Feature", "geometry": {"type": "Point", "coordinates": [-73.9677778, 40.6475]}, "properties": {"name": "Repairing Your World Christian Center", "amenity": "place_of_worship"}}, {"id": 13468619, "type": "Feature", "geometry": {"type": "Point", "coordinates": [-73.9665086, 40.6477907]}, "properties": {"name": "Little Free Library", "amenity": "public_bookcase"}}, {"id": 6170189, "type": "Feature", "geometry": {"type": "Point", "coordinates": [-73.9629174, 40.642045]}, "properties": {"name": "Mex Cabs", "amenity": "taxi"}}, {"id": 7107985, "type": "Feature", "geometry": {"type": "Point", "coordinates": [-73.96338, 40.6418353]}, "properties": {"name": "Madeline", "amenity": "cafe"}}, {"id": 1993178, "type": "Feature", "geometry": {"type": "Point", "coordinates": [-73.9608797, 40.6401454]}, "properties": {"name": "Flatbush-Tompkins Church", "amenity": "place_of_worship"}}, {"id": 1991773, "type": "Feature", "geometry": {"type": "Point", "coordinates": [-73.9608333, 40.6402778]}, "properties": {"name": "Flatbush-Tompkins Congregational Church", "amenity": "place_of_worship"}}, {"id": 7107986, "type": "Feature", "geometry": {"type": "Point", "coordinates": [-73.9640917, 40.6411873]}, "properties": {"name": "Cafe Tibet", "amenity": "restaurant"}}, {"id": 7115651, "type": "Feature", "geometry": {"type": "Point", "coordinates": [-73.9642727, 40.6411097]}, "properties": {"name": "Dunkin'", "amenity": "fast_food"}}, {"id": 13468618, "type": "Feature", "geometry": {"type": "Point", "coordinates": [-73.9642019, 40.6405613]}, "properties": {"name": "Little Free Library", "amenity": "public_bookcase"}}, {"id": 7115652, "type": "Feature", "geometry": {"type": "Point", "coordinates": [-73.964999, 40.6407796]}, "properties": {"name": "Kumo Sushi", "amenity": "restaurant"}}, {"id": 7115647, "type": "Feature", "geometry": {"type": "Point", "coordinates": [-73.9649265, 40.640803]}, "properties": {"name": "San Remo Pizzeria", "amenity": "restaurant"}}, {"id": 7115649, "type": "Feature", "geometry": {"type": "Point", "coordinates": [-73.9648662, 40.6408437]}, "properties": {"name": "Catskill Bagel", "amenity": "cafe"}}, {"id": 1993177, "type": "Feature", "geometry": {"type": "Point", "coordinates": [-73.9644444, 40.6405556]}, "properties": {"name": "Christis Community Christian Missionary Alliance Church", "amenity": "place_of_worship"}}, {"id": 7115645, "type": "Feature", "geometry": {"type": "Point", "coordinates": [-73.9656682, 40.6404815]}, "properties": {"name": "Purple Yam", "amenity": "restaurant"}}, {"id": 7115619, "type": "Feature", "geometry": {"type": "Point", "coordinates": [-73.9658063, 40.6404285]}, "properties": {"name": "Corthaiyou", "amenity": "restaurant"}}, {"id": 2289027, "type": "Feature", "geometry": {"type": "Point", "coordinates": [-73.9666167, 40.6400123]}, "properties": {"name": "New York Engine Company 281", "amenity": "fire_station"}}, {"id": 2289049, "type": "Feature", "geometry": {"type": "Point", "coordinates": [-73.9666667, 40.64]}, "properties": {"name": "New York Ladder Company 147", "amenity": "fire_station"}}, {"id": 7115670, "type": "Feature", "geometry": {"type": "Point", "coordinates": [-73.9668868, 40.6399446]}, "properties": {"name": "Cinco de Mayo", "amenity": "restaurant"}}, {"id": 6169663, "type": "Feature", "geometry": {"type": "Point", "coordinates": [-73.9668472, 40.6402678]}, "properties": {"name": "King Mother", "amenity": "bar"}}, {"id": 5858872, "type": "Feature", "geometry": {"type": "Point", "coordinates": [-73.9666854, 40.6403441]}, "properties": {"name": "The Castello Plan", "amenity": "restaurant"}}, {"id": 6169666, "type": "Feature", "geometry": {"type": "Point", "coordinates": [-73.9667565, 40.6403106]}, "properties": {"name": "Mimi's Hummus", "amenity": "restaurant"}}, {"id": 23715445, "type": "Feature", "geometry": {"type": "Point", "coordinates": [-73.9669505, 40.6402192]}, "properties": {"name": "Dr. Andrew G. Oliphant, DDS", "amenity": "dentist"}}, {"id": 7115674, "type": "Feature", "geometry": {"type": "Point", "coordinates": [-73.9684505, 40.6388772]}, "properties": {"name": "George's Restaurant", "amenity": "restaurant"}}, {"id": 1993180, "type": "Feature", "geometry": {"type": "Point", "coordinates": [-73.9683333, 40.6386111]}, "properties": {"name": "Al-Mahdi Foundation", "amenity": "place_of_worship"}}, {"id": 9689445, "type": "Feature", "geometry": {"type": "Point", "coordinates": [-73.9684115, 40.6392672]}, "properties": {"name": "Bar chord", "amenity": "bar"}}, {"id": 12401450, "type": "Feature", "geometry": {"type": "Point", "coordinates": [-73.9685588, 40.6392034]}, "properties": {"name": "Highbury Inn", "amenity": "bar"}}, {"id": 15233540, "type": "Feature", "geometry": {"type": "Point", "coordinates": [-73.9691428, 40.6412412]}, "properties": {"name": "MashAllah Sweets & Restaurant", "amenity": "restaurant"}}, {"id": 7848757, "type": "Feature", "geometry": {"type": "Point", "coordinates": [-73.9671473, 40.6398121]}, "properties": {"name": "Bashi Channel", "amenity": "restaurant"}}, {"id": 25157617, "type": "Feature", "geometry": {"type": "Point", "coordinates": [-73.9674191, 40.6396937]}, "properties": {"name": "Qathra Cafe", "amenity": "cafe"}}, {"id": 9160373, "type": "Feature", "geometry": {"type": "Point", "coordinates": [-73.9675352, 40.639554]}, "properties": {"name": "The Farm on Adderley", "amenity": "restaurant"}}, {"id": 7115648, "type": "Feature", "geometry": {"type": "Point", "coordinates": [-73.9676128, 40.6396053]}, "properties": {"name": "Connecticut Muffin", "amenity": "cafe"}}, {"id": 5423518, "type": "Feature", "geometry": {"type": "Point", "coordinates": [-73.9672216, 40.6397709]}, "properties": {"name": "Sycamore", "amenity": "bar"}}, {"id": 6169591, "type": "Feature", "geometry": {"type": "Point", "coordinates": [-73.9680084, 40.6394347]}, "properties": {"name": "Lea", "amenity": "restaurant"}}, {"id": 6168799, "type": "Feature", "geometry": {"type": "Point", "coordinates": [-73.9612346, 40.6501772]}, "properties": {"name": "Pharmore Pharmacy", "amenity": "pharmacy"}}, {"id": 23914343, "type": "Feature", "geometry": {"type": "Point", "coordinates": [-73.9589827, 40.650777]}, "properties": {"name": "CityMD", "amenity": "clinic"}}, {"id": 9170336, "type": "Feature", "geometry": {"type": "Point", "coordinates": [-73.958413, 40.6470052]}, "properties": {"name": "Island Express", "amenity": "restaurant"}}, {"id": 1993176, "type": "Feature", "geometry": {"type": "Point", "coordinates": [-73.9652778, 40.6480556]}, "properties": {"name": "Temple Beth Emeth of Flatbush", "amenity": "place_of_worship"}}, {"id": 13083672, "type": "Feature", "geometry": {"type": "Point", "coordinates": [-73.9616674, 40.654773]}, "properties": {"name": "McDonald's", "amenity": "fast_food"}}, {"id": 13083675, "type": "Feature", "geometry": {"type": "Point", "coordinates": [-73.9615993, 40.6543647]}, "properties": {"name": "Fitzroy Maitland, DDS", "amenity": "dentist"}}, {"id": 13083663, "type": "Feature", "geometry": {"type": "Point", "coordinates": [-73.9613926, 40.6549027]}, "properties": {"name": "Park Side Coffee Shop", "amenity": "fast_food"}}, {"id": 13083667, "type": "Feature", "geometry": {"type": "Point", "coordinates": [-73.9613126, 40.6549306]}, "properties": {"name": "Atomic Wings", "amenity": "fast_food"}}, {"id": 13083662, "type": "Feature", "geometry": {"type": "Point", "coordinates": [-73.9614883, 40.6542975]}, "properties": {"name": "Dental Office", "amenity": "dentist"}}, {"id": 13498364, "type": "Feature", "geometry": {"type": "Point", "coordinates": [-73.9597186, 40.6539814]}, "properties": {"name": "De Bamboo Express", "amenity": "fast_food"}}, {"id": 6168278, "type": "Feature", "geometry": {"type": "Point", "coordinates": [-73.9620845, 40.6546114]}, "properties": {"name": "Marie-France Conde Pediatrics", "amenity": "doctors"}}, {"id": 6168266, "type": "Feature", "geometry": {"type": "Point", "coordinates": [-73.9632205, 40.6541589]}, "properties": {"name": "Phebeanna Pre-School", "amenity": "kindergarten"}}, {"id": 23202577, "type": "Feature", "geometry": {"type": "Point", "coordinates": [-73.9611789, 40.6351603]}, "properties": {"name": "Rusty Nail Brooklyn", "amenity": "bar"}}, {"id": 25528990, "type": "Feature", "geometry": {"type": "Point", "coordinates": [-73.962615, 40.634965]}, "properties": {"name": "Lo Duca Pizza", "amenity": "fast_food"}}, {"id": 5423520, "type": "Feature", "geometry": {"type": "Point", "coordinates": [-73.9625469, 40.63473]}, "properties": {"name": "Bank of America", "amenity": "bank"}}, {"id": 5423521, "type": "Feature", "geometry": {"type": "Point", "coordinates": [-73.9625416, 40.6345793]}, "properties": {"name": "Santander", "amenity": "bank"}}, {"id": 23219380, "type": "Feature", "geometry": {"type": "Point", "coordinates": [-73.9649876, 40.6348867]}, "properties": {"name": "The Ox Tavern", "amenity": "restaurant"}}, {"id": 1993182, "type": "Feature", "geometry": {"type": "Point", "coordinates": [-73.9533333, 40.6375]}, "properties": {"name": "Church of God", "amenity": "place_of_worship"}}, {"id": 8952184, "type": "Feature", "geometry": {"type": "Point", "coordinates": [-73.9619981, 40.6360324]}, "properties": {"name": "Flatbush Development Corporation", "amenity": "community_centre"}}, {"id": 1993179, "type": "Feature", "geometry": {"type": "Point", "coordinates": [-73.9641667, 40.6391667]}, "properties": {"name": "Prospect Park Temple Issac", "amenity": "place_of_worship"}}, {"id": 23219381, "type": "Feature", "geometry": {"type": "Point", "coordinates": [-73.9631316, 40.6357782]}, "properties": {"name": "Wattli Bar and Kitchen", "amenity": "restaurant"}}, {"id": 6225441, "type": "Feature", "geometry": {"type": "Point", "coordinates": [-73.9625966, 40.635765]}, "properties": {"name": "Coffee Mob", "amenity": "cafe"}}]}
