{
"type": "FeatureCollection",
"name": "merged",
"crs": { "type": "name", "properties": { "name": "urn:ogc:def:crs:OGC:1.3:CRS84" } },
"features": [
{ "type": "Feature", "properties": { "name": "Luxe Boba & TeaCo", "amenity": "cafe" }, "geometry": { "type": "Point", "coordinates": [ -117.1159415, 32.8111421 ] } },
{ "type": "Feature", "properties": { "name": "Casa Machado", "amenity": "restaurant" }, "geometry": { "type": "Point", "coordinates": [ -117.1412763, 32.8127882 ] } },
{ "type": "Feature", "properties": { "name": "La Fuente", "amenity": "restaurant" }, "geometry": { "type": "Point", "coordinates": [ -117.1404397, 32.8102769 ] } },
{ "type": "Feature", "properties": { "name": "Morris Cerullo World Evangelism Church", "amenity": "place_of_worship" }, "geometry": { "type": "Point", "coordinates": [ -117.1483279, 32.8074788 ] } },
{ "type": "Feature", "properties": { "name": "Rubio's", "amenity": "fast_food" }, "geometry": { "type": "Point", "coordinates": [ -117.115316, 32.8086837 ] } },
{ "type": "Feature", "properties": { "name": "Togo's", "amenity": "fast_food" }, "geometry": { "type": "Point", "coordinates": [ -117.115577, 32.8094767 ] } },
{ "type": "Feature", "properties": { "name": "Einstein Bros. Bagels", "amenity": "fast_food" }, "geometry": { "type": "Point", "coordinates": [ -117.115161, 32.8084726 ] } },
{ "type": "Feature", "properties": { "name": "Baskin-Robbins", "amenity": "ice_cream" }, "geometry": { "type": "Point", "coordinates": [ -117.115592, 32.8095171 ] } },
{ "type": "Feature", "properties": { "name": "Balboa Express Car Wash", "amenity": "car_wash" }, "geometry": { "type": "Point", "coordinates": [ -117.1765198, 32.8207024 ] } },
{ "type": "Feature", "properties": { "name": "Balboa Avenue Community Church", "amenity": "place_of_worship" }, "geometry": { "type": "Point", "coordinates": [ -117.1720206, 32.8200334 ] } },
{ "type": "Feature", "properties": { "name": "Albert Leung", "amenity": "dentist" }, "geometry": { "type": "Point", "coordinates": [ -117.1717135, 32.8200368 ] } },
{ "type": "Feature", "properties": { "name": "Shell", "amenity": "fuel" }, "geometry": { "type": "Point", "coordinates": [ -117.1757542, 32.8199409 ] } },
{ "type": "Feature", "properties": { "name": "Mystic Grill", "amenity": "restaurant" }, "geometry": { "type": "Point", "coordinates": [ -117.1754924, 32.8195969 ] } },
{ "type": "Feature", "properties": { "name": "Ark Animal Hospital", "amenity": "veterinary" }, "geometry": { "type": "Point", "coordinates": [ -117.1746305, 32.819688 ] } },
{ "type": "Feature", "properties": { "name": "Tropical Star", "amenity": "restaurant" }, "geometry": { "type": "Point", "coordinates": [ -117.1747445, 32.8196812 ] } },
{ "type": "Feature", "properties": { "name": "Saint Catherine Labourne Catholic Church", "amenity": "place_of_worship" }, "geometry": { "type": "Point", "coordinates": [ -117.1764314, 32.8185079 ] } },
{ "type": "Feature", "properties": { "name": "Hawthorne Charter School", "amenity": "school" }, "geometry": { "type": "Point", "coordinates": [ -117.1872295, 32.839892 ] } },
{ "type": "Feature", "properties": { "name": "Got Burritos?", "amenity": "restaurant" }, "geometry": { "type": "Point", "coordinates": [ -117.1894112, 32.8347916 ] } },
{ "type": "Feature", "properties": { "name": "Tealightful Cafe", "amenity": "fast_food" }, "geometry": { "type": "Point", "coordinates": [ -117.1888359, 32.834798 ] } },
{ "type": "Feature", "properties": { "name": "Blue Bayou", "amenity": "bar" }, "geometry": { "type": "Point", "coordinates": [ -117.1879656, 32.8356985 ] } },
{ "type": "Feature", "properties": { "name": "Robert J. Bey DDS", "amenity": "dentist" }, "geometry": { "type": "Point", "coordinates": [ -117.1909575, 32.8263598 ] } },
{ "type": "Feature", "properties": { "name": "Reformation Lutheran Church", "amenity": "place_of_worship" }, "geometry": { "type": "Point", "coordinates": [ -117.1722564, 32.8278262 ] } },
{ "type": "Feature", "properties": { "name": "Costco Gasoline", "amenity": "fuel" }, "geometry": { "type": "Point", "coordinates": [ -117.2237162, 32.8199865 ] } },
{ "type": "Feature", "properties": { "name": "Los Palmitos Taco Shop", "amenity": "restaurant" }, "geometry": { "type": "Point", "coordinates": [ -117.17969, 32.8341115 ] } },
{ "type": "Feature", "properties": { "name": "Taisho Yakitori Bar", "amenity": "restaurant" }, "geometry": { "type": "Point", "coordinates": [ -117.1790792, 32.8333424 ] } },
{ "type": "Feature", "properties": { "name": "Panera Bread", "amenity": "fast_food" }, "geometry": { "type": "Point", "coordinates": [ -117.179812, 32.8203275 ] } },
{ "type": "Feature", "properties": { "name": "Chipotle", "amenity": "fast_food" }, "geometry": { "type": "Point", "coordinates": [ -117.1790163, 32.8204346 ] } },
{ "type": "Feature", "properties": { "name": "Five Guys", "amenity": "fast_food" }, "geometry": { "type": "Point", "coordinates": [ -117.179039, 32.8206504 ] } },
{ "type": "Feature", "properties": { "name": "Blaze Pizza", "amenity": "restaurant" }, "geometry": { "type": "Point", "coordinates": [ -117.1798788, 32.8205903 ] } },
{ "type": "Feature", "properties": { "name": "Banner Bank", "amenity": "bank" }, "geometry": { "type": "Point", "coordinates": [ -117.180938, 32.8201436 ] } },
{ "type": "Feature", "properties": { "name": "Clairemont Smiles", "amenity": "dentist" }, "geometry": { "type": "Point", "coordinates": [ -117.1787431, 32.8192152 ] } },
{ "type": "Feature", "properties": { "name": "SHABUMi", "amenity": "restaurant" }, "geometry": { "type": "Point", "coordinates": [ -117.1787288, 32.8191153 ] } },
{ "type": "Feature", "properties": { "name": "Aria Pharmacy", "amenity": "pharmacy" }, "geometry": { "type": "Point", "coordinates": [ -117.1774737, 32.8190095 ] } },
{ "type": "Feature", "properties": { "name": "Ototo Sushi Co.", "amenity": "restaurant" }, "geometry": { "type": "Point", "coordinates": [ -117.1785783, 32.8188178 ] } },
{ "type": "Feature", "properties": { "name": "Extreme Smile Makeover Dentist", "amenity": "dentist" }, "geometry": { "type": "Point", "coordinates": [ -117.1773744, 32.8190206 ] } },
{ "type": "Feature", "properties": { "name": "Mr. Fish & Chips", "amenity": "restaurant" }, "geometry": { "type": "Point", "coordinates": [ -117.1785783, 32.8187491 ] } },
{ "type": "Feature", "properties": { "name": "Panda Country", "amenity": "restaurant" }, "geometry": { "type": "Point", "coordinates": [ -117.195747, 32.834222 ] } },
{ "type": "Feature", "properties": { "name": "Clairemont Auto Care", "amenity": "fuel" }, "geometry": { "type": "Point", "coordinates": [ -117.1950836, 32.8342381 ] } },
{ "type": "Feature", "properties": { "name": "Saint Davids Episcopal Church", "amenity": "place_of_worship" }, "geometry": { "type": "Point", "coordinates": [ -117.1898335, 32.7831929 ] } },
{ "type": "Feature", "properties": { "name": "John Muir School", "amenity": "school" }, "geometry": { "type": "Point", "coordinates": [ -117.1941496, 32.8237573 ] } },
{ "type": "Feature", "properties": { "name": "Paul E Kidd African Methodist Episcopal Church", "amenity": "place_of_worship" }, "geometry": { "type": "Point", "coordinates": [ -117.1672561, 32.7900494 ] } },
{ "type": "Feature", "properties": { "name": "Serina Pizza", "amenity": "restaurant" }, "geometry": { "type": "Point", "coordinates": [ -117.1758472, 32.7919152 ] } },
{ "type": "Feature", "properties": { "name": "Montgomery Junior High School", "amenity": "school" }, "geometry": { "type": "Point", "coordinates": [ -117.1721236, 32.7877526 ] } },
{ "type": "Feature", "properties": { "name": "Everbowl", "amenity": "fast_food" }, "geometry": { "type": "Point", "coordinates": [ -117.1570407, 32.7737072 ] } },
{ "type": "Feature", "properties": { "name": "Union Bank", "amenity": "bank" }, "geometry": { "type": "Point", "coordinates": [ -117.1561805, 32.7752782 ] } },
{ "type": "Feature", "properties": { "name": "Mobil", "amenity": "fuel" }, "geometry": { "type": "Point", "coordinates": [ -117.154542, 32.7740728 ] } },
{ "type": "Feature", "properties": { "name": "Grand Plaza Fountain", "amenity": "fountain" }, "geometry": { "type": "Point", "coordinates": [ -117.1682011, 32.7634272 ] } },
{ "type": "Feature", "properties": { "name": "Starbucks", "amenity": "cafe" }, "geometry": { "type": "Point", "coordinates": [ -117.1684036, 32.7637832 ] } },
{ "type": "Feature", "properties": { "name": "Carson Charter School", "amenity": "school" }, "geometry": { "type": "Point", "coordinates": [ -117.1709757, 32.7766846 ] } },
{ "type": "Feature", "properties": { "name": "The Coffee Corner", "amenity": "cafe" }, "geometry": { "type": "Point", "coordinates": [ -117.1732434, 32.7751795 ] } },
{ "type": "Feature", "properties": { "name": "Church of the Nazarene", "amenity": "place_of_worship" }, "geometry": { "type": "Point", "coordinates": [ -117.1736496, 32.7758271 ] } },
{ "type": "Feature", "properties": { "name": "Baha'i Faith Church", "amenity": "place_of_worship" }, "geometry": { "type": "Point", "coordinates": [ -117.1767667, 32.7732337 ] } },
{ "type": "Feature", "properties": { "name": "Stacked", "amenity": "restaurant" }, "geometry": { "type": "Point", "coordinates": [ -117.1661746, 32.7684703 ] } },
{ "type": "Feature", "properties": { "name": "Starbucks", "amenity": "cafe" }, "geometry": { "type": "Point", "coordinates": [ -117.1662908, 32.7677443 ] } },
{ "type": "Feature", "properties": { "name": "True Food Kitchen", "amenity": "restaurant" }, "geometry": { "type": "Point", "coordinates": [ -117.1652129, 32.7688356 ] } },
{ "type": "Feature", "properties": { "name": "Better Buzz Coffee", "amenity": "cafe" }, "geometry": { "type": "Point", "coordinates": [ -117.168056, 32.7675967 ] } },
{ "type": "Feature", "properties": { "name": "Wetzel's Pretzels", "amenity": "fast_food" }, "geometry": { "type": "Point", "coordinates": [ -117.1682027, 32.767619 ] } },
{ "type": "Feature", "properties": { "name": "Tesla Supercharger", "amenity": "charging_station" }, "geometry": { "type": "Point", "coordinates": [ -117.1633491, 32.7683777 ] } },
{ "type": "Feature", "properties": { "name": "Green Go Wash Professional Auto Detailing and Car Wash", "amenity": "car_wash" }, "geometry": { "type": "Point", "coordinates": [ -117.1692049, 32.7693062 ] } },
{ "type": "Feature", "properties": { "name": "King's Fish House", "amenity": "restaurant" }, "geometry": { "type": "Point", "coordinates": [ -117.1568115, 32.7668919 ] } },
{ "type": "Feature", "properties": { "name": "Lazy Dog Restaurant & Bar", "amenity": "restaurant" }, "geometry": { "type": "Point", "coordinates": [ -117.1543417, 32.766475 ] } },
{ "type": "Feature", "properties": { "name": "Corner Bakery Cafe", "amenity": "fast_food" }, "geometry": { "type": "Point", "coordinates": [ -117.152908, 32.76802 ] } },
{ "type": "Feature", "properties": { "name": "Robeks Juice", "amenity": "restaurant" }, "geometry": { "type": "Point", "coordinates": [ -117.1528329, 32.7680366 ] } },
{ "type": "Feature", "properties": { "name": "Yard House", "amenity": "restaurant" }, "geometry": { "type": "Point", "coordinates": [ -117.1487189, 32.7680091 ] } },
{ "type": "Feature", "properties": { "name": "Mission Valley Post Office", "amenity": "post_office" }, "geometry": { "type": "Point", "coordinates": [ -117.149617, 32.7672613 ] } },
{ "type": "Feature", "properties": { "name": "In Cahoots", "amenity": "bar" }, "geometry": { "type": "Point", "coordinates": [ -117.1542014, 32.7710004 ] } },
{ "type": "Feature", "properties": { "name": "Holy Family Catholic Church", "amenity": "place_of_worship" }, "geometry": { "type": "Point", "coordinates": [ -117.1697562, 32.7806052 ] } },
{ "type": "Feature", "properties": { "name": "Arco", "amenity": "fuel" }, "geometry": { "type": "Point", "coordinates": [ -117.19525, 32.8347558 ] } },
{ "type": "Feature", "properties": { "name": "Northminster Presbyterian Church", "amenity": "place_of_worship" }, "geometry": { "type": "Point", "coordinates": [ -117.2003274, 32.8338366 ] } },
{ "type": "Feature", "properties": { "name": "Korean Congregational Church", "amenity": "place_of_worship" }, "geometry": { "type": "Point", "coordinates": [ -117.2000351, 32.833937 ] } },
{ "type": "Feature", "properties": { "name": "Mister Falafel", "amenity": "restaurant" }, "geometry": { "type": "Point", "coordinates": [ -117.1957149, 32.8340444 ] } },
{ "type": "Feature", "properties": { "name": "NY Pizza Pies", "amenity": "restaurant" }, "geometry": { "type": "Point", "coordinates": [ -117.1953438, 32.8338415 ] } },
{ "type": "Feature", "properties": { "name": "Clairemont Church of the Nazarene", "amenity": "place_of_worship" }, "geometry": { "type": "Point", "coordinates": [ -117.179438, 32.832442 ] } },
{ "type": "Feature", "properties": { "name": "Creamistry", "amenity": "ice_cream" }, "geometry": { "type": "Point", "coordinates": [ -117.1586759, 32.8335064 ] } },
{ "type": "Feature", "properties": { "name": "Jersey Mike's Subs", "amenity": "fast_food" }, "geometry": { "type": "Point", "coordinates": [ -117.1585312, 32.8334944 ] } },
{ "type": "Feature", "properties": { "name": "Kilowatt Brewing", "amenity": "pub" }, "geometry": { "type": "Point", "coordinates": [ -117.156464, 32.8331098 ] } },
{ "type": "Feature", "properties": { "name": "Mama's Grill", "amenity": "restaurant" }, "geometry": { "type": "Point", "coordinates": [ -117.1588451, 32.8335012 ] } },
{ "type": "Feature", "properties": { "name": "Road One Towing", "amenity": "auto_towing" }, "geometry": { "type": "Point", "coordinates": [ -117.1588452, 32.8317694 ] } },
{ "type": "Feature", "properties": { "name": "Jasmine Seafood Restaurant", "amenity": "restaurant" }, "geometry": { "type": "Point", "coordinates": [ -117.1547271, 32.8238306 ] } },
{ "type": "Feature", "properties": { "name": "El Viejon Seafood", "amenity": "restaurant" }, "geometry": { "type": "Point", "coordinates": [ -117.1547354, 32.8244955 ] } },
{ "type": "Feature", "properties": { "name": "Han Bit Church", "amenity": "place_of_worship" }, "geometry": { "type": "Point", "coordinates": [ -117.1533207, 32.8239168 ] } },
{ "type": "Feature", "properties": { "name": "Bonchon", "amenity": "restaurant" }, "geometry": { "type": "Point", "coordinates": [ -117.1557631, 32.8264249 ] } },
{ "type": "Feature", "properties": { "name": "San Tong Palace", "amenity": "restaurant" }, "geometry": { "type": "Point", "coordinates": [ -117.1557301, 32.8265369 ] } },
{ "type": "Feature", "properties": { "name": "Wendy's", "amenity": "fast_food" }, "geometry": { "type": "Point", "coordinates": [ -117.15374, 32.8287019 ] } },
{ "type": "Feature", "properties": { "name": "Subway", "amenity": "fast_food" }, "geometry": { "type": "Point", "coordinates": [ -117.1596661, 32.8323799 ] } },
{ "type": "Feature", "properties": { "name": "CRAB HUT", "amenity": "restaurant" }, "geometry": { "type": "Point", "coordinates": [ -117.1559805, 32.8246758 ] } },
{ "type": "Feature", "properties": { "name": "O Briens", "amenity": "bar" }, "geometry": { "type": "Point", "coordinates": [ -117.1558826, 32.8251302 ] } },
{ "type": "Feature", "properties": { "name": "Red Moon Noodle House", "amenity": "restaurant" }, "geometry": { "type": "Point", "coordinates": [ -117.1558832, 32.8249423 ] } },
{ "type": "Feature", "properties": { "name": "Somi Somi", "amenity": "ice_cream" }, "geometry": { "type": "Point", "coordinates": [ -117.1554673, 32.8244015 ] } },
{ "type": "Feature", "properties": { "name": "Common Theory", "amenity": "pub" }, "geometry": { "type": "Point", "coordinates": [ -117.1528242, 32.8293469 ] } },
{ "type": "Feature", "properties": { "name": "Kung Fu Tea", "amenity": "cafe" }, "geometry": { "type": "Point", "coordinates": [ -117.1526857, 32.8300377 ] } },
{ "type": "Feature", "properties": { "name": "R3 Juice Bar", "amenity": "restaurant" }, "geometry": { "type": "Point", "coordinates": [ -117.1526593, 32.8295081 ] } },
{ "type": "Feature", "properties": { "name": "Church Universal and Triumphant", "amenity": "place_of_worship" }, "geometry": { "type": "Point", "coordinates": [ -117.1519855, 32.8262457 ] } },
{ "type": "Feature", "properties": { "name": "Cali Bahn Mi", "amenity": "fast_food" }, "geometry": { "type": "Point", "coordinates": [ -117.1547395, 32.820843 ] } },
{ "type": "Feature", "properties": { "name": "Sushi Deli 3", "amenity": "restaurant" }, "geometry": { "type": "Point", "coordinates": [ -117.1514558, 32.820177 ] } },
{ "type": "Feature", "properties": { "name": "Vibe Asian Fusion Restaurant", "amenity": "restaurant" }, "geometry": { "type": "Point", "coordinates": [ -117.1556531, 32.8204538 ] } },
{ "type": "Feature", "properties": { "name": "BBCN Bank", "amenity": "bank" }, "geometry": { "type": "Point", "coordinates": [ -117.155369, 32.8203897 ] } },
{ "type": "Feature", "properties": { "name": "Victors Cocktail Lounge", "amenity": "bar" }, "geometry": { "type": "Point", "coordinates": [ -117.154451, 32.819383 ] } },
{ "type": "Feature", "properties": { "name": "Kotobuki", "amenity": "restaurant" }, "geometry": { "type": "Point", "coordinates": [ -117.1280726, 32.8324623 ] } },
{ "type": "Feature", "properties": { "name": "Go Heart Tea Bar", "amenity": "cafe" }, "geometry": { "type": "Point", "coordinates": [ -117.1281088, 32.8324651 ] } },
{ "type": "Feature", "properties": { "name": "Chinese Bilingual Preschool", "amenity": "kindergarten" }, "geometry": { "type": "Point", "coordinates": [ -117.1262188, 32.8283909 ] } },
{ "type": "Feature", "properties": { "name": "UPS", "amenity": "post_box" }, "geometry": { "type": "Point", "coordinates": [ -117.124517, 32.8214237 ] } },
{ "type": "Feature", "properties": { "name": "California Coast Credit Union", "amenity": "bank" }, "geometry": { "type": "Point", "coordinates": [ -117.1256748, 32.8195197 ] } },
{ "type": "Feature", "properties": { "name": "Feel Good Coffee Cart", "amenity": "cafe" }, "geometry": { "type": "Point", "coordinates": [ -117.126274, 32.8204185 ] } },
{ "type": "Feature", "properties": { "name": "USPS", "amenity": "post_box" }, "geometry": { "type": "Point", "coordinates": [ -117.126654, 32.8198745 ] } },
{ "type": "Feature", "properties": { "name": "USPS", "amenity": "post_box" }, "geometry": { "type": "Point", "coordinates": [ -117.12666, 32.8198835 ] } },
{ "type": "Feature", "properties": { "name": "Home Bank of California", "amenity": "bank" }, "geometry": { "type": "Point", "coordinates": [ -117.1270796, 32.8217816 ] } },
{ "type": "Feature", "properties": { "name": "Wegeforth Charter School", "amenity": "school" }, "geometry": { "type": "Point", "coordinates": [ -117.1338164, 32.8053727 ] } },
{ "type": "Feature", "properties": { "name": "Full Gospel Temple", "amenity": "place_of_worship" }, "geometry": { "type": "Point", "coordinates": [ -117.2161553, 32.8313175 ] } },
{ "type": "Feature", "properties": { "name": "Little Free Library", "amenity": "public_bookcase" }, "geometry": { "type": "Point", "coordinates": [ -117.2148322, 32.8260921 ] } },
{ "type": "Feature", "properties": { "name": "Obi's Sushi", "amenity": "restaurant" }, "geometry": { "type": "Point", "coordinates": [ -117.1160931, 32.8107316 ] } },
{ "type": "Feature", "properties": { "name": "Cucina Basilico", "amenity": "restaurant" }, "geometry": { "type": "Point", "coordinates": [ -117.1159403, 32.8109107 ] } },
{ "type": "Feature", "properties": { "name": "USPS", "amenity": "post_box" }, "geometry": { "type": "Point", "coordinates": [ -117.119387, 32.8066732 ] } },
{ "type": "Feature", "properties": { "name": "Domino's", "amenity": "fast_food" }, "geometry": { "type": "Point", "coordinates": [ -117.2022627, 32.8301096 ] } },
{ "type": "Feature", "properties": { "name": "Chili's", "amenity": "restaurant" }, "geometry": { "type": "Point", "coordinates": [ -117.2021822, 32.8296184 ] } },
{ "type": "Feature", "properties": { "name": "Sushiman", "amenity": "restaurant" }, "geometry": { "type": "Point", "coordinates": [ -117.2051166, 32.829704 ] } },
{ "type": "Feature", "properties": { "name": "Denny's", "amenity": "restaurant" }, "geometry": { "type": "Point", "coordinates": [ -117.2016166, 32.8325199 ] } },
{ "type": "Feature", "properties": { "name": "Outback Steakhouse", "amenity": "restaurant" }, "geometry": { "type": "Point", "coordinates": [ -117.2029427, 32.8309793 ] } },
{ "type": "Feature", "properties": { "name": "Dino's Gyros", "amenity": "restaurant" }, "geometry": { "type": "Point", "coordinates": [ -117.2050335, 32.829695 ] } },
{ "type": "Feature", "properties": { "name": "Bank of America", "amenity": "bank" }, "geometry": { "type": "Point", "coordinates": [ -117.2023, 32.829014 ] } },
{ "type": "Feature", "properties": { "name": "Waldo's Chili Dogs", "amenity": "fast_food" }, "geometry": { "type": "Point", "coordinates": [ -117.202035, 32.8320195 ] } },
{ "type": "Feature", "properties": { "name": "Jamba", "amenity": "fast_food" }, "geometry": { "type": "Point", "coordinates": [ -117.204649, 32.8301052 ] } },
{ "type": "Feature", "properties": { "name": "Pizza Hut", "amenity": "restaurant" }, "geometry": { "type": "Point", "coordinates": [ -117.2044219, 32.8319894 ] } },
{ "type": "Feature", "properties": { "name": "Lifetime Animal Care Center", "amenity": "veterinary" }, "geometry": { "type": "Point", "coordinates": [ -117.2035343, 32.8320186 ] } },
{ "type": "Feature", "properties": { "name": "Shabach Temple Ministries", "amenity": "place_of_worship" }, "geometry": { "type": "Point", "coordinates": [ -117.1522344, 32.8349645 ] } },
{ "type": "Feature", "properties": { "name": "Taiwanese Christian Church", "amenity": "place_of_worship" }, "geometry": { "type": "Point", "coordinates": [ -117.1620663, 32.8348396 ] } },
{ "type": "Feature", "properties": { "name": "Tea N More", "amenity": "cafe" }, "geometry": { "type": "Point", "coordinates": [ -117.1597934, 32.8329333 ] } },
{ "type": "Feature", "properties": { "name": "Picasso's Naturals", "amenity": "restaurant" }, "geometry": { "type": "Point", "coordinates": [ -117.1582277, 32.8334863 ] } },
{ "type": "Feature", "properties": { "name": "Off the Wok", "amenity": "fast_food" }, "geometry": { "type": "Point", "coordinates": [ -117.1556753, 32.831361 ] } },
{ "type": "Feature", "properties": { "name": "Little Caesars", "amenity": "fast_food" }, "geometry": { "type": "Point", "coordinates": [ -117.1535178, 32.8315479 ] } },
{ "type": "Feature", "properties": { "name": "Zen Curry  Zen Curry", "amenity": "restaurant" }, "geometry": { "type": "Point", "coordinates": [ -117.160586, 32.8320345 ] } },
{ "type": "Feature", "properties": { "name": "Tea Station", "amenity": "cafe" }, "geometry": { "type": "Point", "coordinates": [ -117.160591, 32.831943 ] } },
{ "type": "Feature", "properties": { "name": "Katsu Cafe", "amenity": "restaurant" }, "geometry": { "type": "Point", "coordinates": [ -117.160506, 32.8322565 ] } },
{ "type": "Feature", "properties": { "name": "Deja Vu", "amenity": "bar" }, "geometry": { "type": "Point", "coordinates": [ -117.13849, 32.834865 ] } },
{ "type": "Feature", "properties": { "name": "San Diego County COC Cafeteria", "amenity": "food_court" }, "geometry": { "type": "Point", "coordinates": [ -117.1295502, 32.834242 ] } },
{ "type": "Feature", "properties": { "name": "Serra Cooperative Library System Administration Building", "amenity": "library" }, "geometry": { "type": "Point", "coordinates": [ -117.1304218, 32.8341716 ] } },
{ "type": "Feature", "properties": { "name": "Wendy's", "amenity": "fast_food" }, "geometry": { "type": "Point", "coordinates": [ -117.1295435, 32.8319714 ] } },
{ "type": "Feature", "properties": { "name": "Robataya OTON", "amenity": "restaurant" }, "geometry": { "type": "Point", "coordinates": [ -117.1382829, 32.8326956 ] } },
{ "type": "Feature", "properties": { "name": "Gualberto's Taco Shop #2", "amenity": "fast_food" }, "geometry": { "type": "Point", "coordinates": [ -117.138321, 32.8327201 ] } },
{ "type": "Feature", "properties": { "name": "Mauricio's", "amenity": "fast_food" }, "geometry": { "type": "Point", "coordinates": [ -117.1391841, 32.8306555 ] } },
{ "type": "Feature", "properties": { "name": "Pho Duyen Mai", "amenity": "restaurant" }, "geometry": { "type": "Point", "coordinates": [ -117.1388453, 32.8306577 ] } },
{ "type": "Feature", "properties": { "name": "Subway", "amenity": "fast_food" }, "geometry": { "type": "Point", "coordinates": [ -117.1394051, 32.8306615 ] } },
{ "type": "Feature", "properties": { "name": "Annys Fine Burger", "amenity": "fast_food" }, "geometry": { "type": "Point", "coordinates": [ -117.1384822, 32.8310861 ] } },
{ "type": "Feature", "properties": { "name": "Bank of America", "amenity": "bank" }, "geometry": { "type": "Point", "coordinates": [ -117.1351428, 32.8311126 ] } },
{ "type": "Feature", "properties": { "name": "Long Island Mike's Pizza", "amenity": "fast_food" }, "geometry": { "type": "Point", "coordinates": [ -117.1211447, 32.8320621 ] } },
{ "type": "Feature", "properties": { "name": "Cali's & Fries", "amenity": "fast_food" }, "geometry": { "type": "Point", "coordinates": [ -117.1210437, 32.8314633 ] } },
{ "type": "Feature", "properties": { "name": "Grab & Go Subs", "amenity": "fast_food" }, "geometry": { "type": "Point", "coordinates": [ -117.1210855, 32.8316953 ] } },
{ "type": "Feature", "properties": { "name": "Tierramesa Veterinary Clinic", "amenity": "veterinary" }, "geometry": { "type": "Point", "coordinates": [ -117.1286458, 32.8307826 ] } },
{ "type": "Feature", "properties": { "name": "Starbucks", "amenity": "cafe" }, "geometry": { "type": "Point", "coordinates": [ -117.130721, 32.8310278 ] } },
{ "type": "Feature", "properties": { "name": "Panera Bread", "amenity": "fast_food" }, "geometry": { "type": "Point", "coordinates": [ -117.133918, 32.8311478 ] } },
{ "type": "Feature", "properties": { "name": "Pockets Billiards & Brew", "amenity": "bar" }, "geometry": { "type": "Point", "coordinates": [ -117.1394184, 32.8363562 ] } },
{ "type": "Feature", "properties": { "name": "Burger King", "amenity": "fast_food" }, "geometry": { "type": "Point", "coordinates": [ -117.1495748, 32.832432 ] } },
{ "type": "Feature", "properties": { "name": "Yesenia’s Mexican and Seafood", "amenity": "restaurant" }, "geometry": { "type": "Point", "coordinates": [ -117.1466661, 32.8321569 ] } },
{ "type": "Feature", "properties": { "name": "Boomerangs Gourmet Burger Joint", "amenity": "restaurant" }, "geometry": { "type": "Point", "coordinates": [ -117.2056205, 32.8271375 ] } },
{ "type": "Feature", "properties": { "name": "San Diego City Fire Station 27", "amenity": "fire_station" }, "geometry": { "type": "Point", "coordinates": [ -117.201665, 32.833854 ] } },
{ "type": "Feature", "properties": { "name": "McDonald's", "amenity": "fast_food" }, "geometry": { "type": "Point", "coordinates": [ -117.2019046, 32.833146 ] } },
{ "type": "Feature", "properties": { "name": "Lightning Jack's BBQ", "amenity": "fast_food" }, "geometry": { "type": "Point", "coordinates": [ -117.2053232, 32.8296454 ] } },
{ "type": "Feature", "properties": { "name": "Cucina Italiana", "amenity": "restaurant" }, "geometry": { "type": "Point", "coordinates": [ -117.2048135, 32.8296567 ] } },
{ "type": "Feature", "properties": { "name": "Extreme Pizza", "amenity": "fast_food" }, "geometry": { "type": "Point", "coordinates": [ -117.2049557, 32.8296928 ] } },
{ "type": "Feature", "properties": { "name": "CVS Pharmacy", "amenity": "pharmacy" }, "geometry": { "type": "Point", "coordinates": [ -117.2044461, 32.8314553 ] } },
{ "type": "Feature", "properties": { "name": "Senor Pancho Fresh Mexican Grill", "amenity": "fast_food" }, "geometry": { "type": "Point", "coordinates": [ -117.2051676, 32.8296454 ] } },
{ "type": "Feature", "properties": { "name": "KFC", "amenity": "fast_food" }, "geometry": { "type": "Point", "coordinates": [ -117.201372, 32.8328327 ] } },
{ "type": "Feature", "properties": { "name": "Speedway", "amenity": "fuel" }, "geometry": { "type": "Point", "coordinates": [ -117.2020435, 32.8314107 ] } },
{ "type": "Feature", "properties": { "name": "Skybox Sports Grill", "amenity": "bar" }, "geometry": { "type": "Point", "coordinates": [ -117.2052794, 32.8310049 ] } },
{ "type": "Feature", "properties": { "name": "Bombay Coast Indian Tandoor & Curry Express", "amenity": "fast_food" }, "geometry": { "type": "Point", "coordinates": [ -117.20524, 32.8296454 ] } },
{ "type": "Feature", "properties": { "name": "Cold Stone Creamery", "amenity": "ice_cream" }, "geometry": { "type": "Point", "coordinates": [ -117.2048806, 32.829668 ] } },
{ "type": "Feature", "properties": { "name": "Starbucks", "amenity": "cafe" }, "geometry": { "type": "Point", "coordinates": [ -117.204776, 32.8296026 ] } },
{ "type": "Feature", "properties": { "name": "Troy's Family Restaurant", "amenity": "restaurant" }, "geometry": { "type": "Point", "coordinates": [ -117.2045641, 32.8308197 ] } },
{ "type": "Feature", "properties": { "name": "Town Square Family Dentistry", "amenity": "dentist" }, "geometry": { "type": "Point", "coordinates": [ -117.2040627, 32.8320005 ] } },
{ "type": "Feature", "properties": { "name": "Arely", "amenity": "cafe" }, "geometry": { "type": "Point", "coordinates": [ -117.2026678, 32.8320345 ] } },
{ "type": "Feature", "properties": { "name": "Mission San Pablo - Clairemont", "amenity": "place_of_worship" }, "geometry": { "type": "Point", "coordinates": [ -117.2005906, 32.8322703 ] } },
{ "type": "Feature", "properties": { "name": "Clairemont Lutheran Church", "amenity": "place_of_worship" }, "geometry": { "type": "Point", "coordinates": [ -117.2006491, 32.8325887 ] } },
{ "type": "Feature", "properties": { "name": "Catholic Diocese of San Diego", "amenity": "place_of_worship" }, "geometry": { "type": "Point", "coordinates": [ -117.2135685, 32.8120728 ] } },
{ "type": "Feature", "properties": { "name": "Horizon Christian Fellowship Church", "amenity": "place_of_worship" }, "geometry": { "type": "Point", "coordinates": [ -117.209202, 32.825326 ] } },
{ "type": "Feature", "properties": { "name": "Jesus Community Church", "amenity": "place_of_worship" }, "geometry": { "type": "Point", "coordinates": [ -117.1655648, 32.8345259 ] } },
{ "type": "Feature", "properties": { "name": "Chipotle", "amenity": "fast_food" }, "geometry": { "type": "Point", "coordinates": [ -117.1645928, 32.8316369 ] } },
{ "type": "Feature", "properties": { "name": "First Baptist Church of Clairemont", "amenity": "place_of_worship" }, "geometry": { "type": "Point", "coordinates": [ -117.2160946, 32.8310437 ] } },
{ "type": "Feature", "properties": { "name": "First Chinese Southern Baptist Church", "amenity": "place_of_worship" }, "geometry": { "type": "Point", "coordinates": [ -117.2143808, 32.8291391 ] } },
{ "type": "Feature", "properties": { "name": "聖地雅歌國語禮拜堂", "amenity": "place_of_worship" }, "geometry": { "type": "Point", "coordinates": [ -117.2122419, 32.8279049 ] } },
{ "type": "Feature", "properties": { "name": "San Diego First Assembly Church", "amenity": "place_of_worship" }, "geometry": { "type": "Point", "coordinates": [ -117.1478501, 32.7850612 ] } },
{ "type": "Feature", "properties": { "name": "Clairemont Church of God", "amenity": "place_of_worship" }, "geometry": { "type": "Point", "coordinates": [ -117.1833679, 32.8356037 ] } },
{ "type": "Feature", "properties": { "name": "Carmen's Mexican Food", "amenity": "restaurant" }, "geometry": { "type": "Point", "coordinates": [ -117.1867686, 32.8350864 ] } },
{ "type": "Feature", "properties": { "name": "Little Sheep Mongolian Hot Pot", "amenity": "restaurant" }, "geometry": { "type": "Point", "coordinates": [ -117.1888656, 32.8354474 ] } },
{ "type": "Feature", "properties": { "name": "Starbucks", "amenity": "cafe" }, "geometry": { "type": "Point", "coordinates": [ -117.187344, 32.8347491 ] } },
{ "type": "Feature", "properties": { "name": "Wiggin School", "amenity": "school" }, "geometry": { "type": "Point", "coordinates": [ -117.1869855, 32.8202468 ] } },
{ "type": "Feature", "properties": { "name": "Balboa's Tap House", "amenity": "pub" }, "geometry": { "type": "Point", "coordinates": [ -117.1834009, 32.8240985 ] } },
{ "type": "Feature", "properties": { "name": "Korean Hope Church of San Diego", "amenity": "place_of_worship" }, "geometry": { "type": "Point", "coordinates": [ -117.1485841, 32.8260138 ] } },
{ "type": "Feature", "properties": { "name": "Kum Kwan Preschool", "amenity": "school" }, "geometry": { "type": "Point", "coordinates": [ -117.1524909, 32.8239484 ] } },
{ "type": "Feature", "properties": { "name": "Steamy Piggy", "amenity": "restaurant" }, "geometry": { "type": "Point", "coordinates": [ -117.1545659, 32.8256274 ] } },
{ "type": "Feature", "properties": { "name": "Iceskimo", "amenity": "ice_cream" }, "geometry": { "type": "Point", "coordinates": [ -117.1549355, 32.8240529 ] } },
{ "type": "Feature", "properties": { "name": "Josun Korean BBQ", "amenity": "restaurant" }, "geometry": { "type": "Point", "coordinates": [ -117.1544109, 32.8255995 ] } },
{ "type": "Feature", "properties": { "name": "Happy Lemon", "amenity": "cafe" }, "geometry": { "type": "Point", "coordinates": [ -117.1545304, 32.8247309 ] } },
{ "type": "Feature", "properties": { "name": "The Fire Spot", "amenity": "restaurant" }, "geometry": { "type": "Point", "coordinates": [ -117.155887, 32.8248939 ] } },
{ "type": "Feature", "properties": { "name": "J Wata", "amenity": "restaurant" }, "geometry": { "type": "Point", "coordinates": [ -117.155627, 32.8246769 ] } },
{ "type": "Feature", "properties": { "name": "Chevron", "amenity": "fuel" }, "geometry": { "type": "Point", "coordinates": [ -117.1485215, 32.8223519 ] } },
{ "type": "Feature", "properties": { "name": "San Diego Smile Dentistry", "amenity": "dentist" }, "geometry": { "type": "Point", "coordinates": [ -117.1579357, 32.8222296 ] } },
{ "type": "Feature", "properties": { "name": "The Original Pancake House", "amenity": "restaurant" }, "geometry": { "type": "Point", "coordinates": [ -117.15467, 32.8151662 ] } },
{ "type": "Feature", "properties": { "name": "Cafe Hue", "amenity": "cafe" }, "geometry": { "type": "Point", "coordinates": [ -117.1539179, 32.8144145 ] } },
{ "type": "Feature", "properties": { "name": "Tajima Ramen & Izakaya Bar", "amenity": "restaurant" }, "geometry": { "type": "Point", "coordinates": [ -117.1486266, 32.8203141 ] } },
{ "type": "Feature", "properties": { "name": "Dduriba", "amenity": "restaurant" }, "geometry": { "type": "Point", "coordinates": [ -117.1545758, 32.820615 ] } },
{ "type": "Feature", "properties": { "name": "7-Eleven", "amenity": "fuel" }, "geometry": { "type": "Point", "coordinates": [ -117.1546366, 32.8214987 ] } },
{ "type": "Feature", "properties": { "name": "Carriage House", "amenity": "bar" }, "geometry": { "type": "Point", "coordinates": [ -117.152195, 32.821273 ] } },
{ "type": "Feature", "properties": { "name": "The Hive", "amenity": "bar" }, "geometry": { "type": "Point", "coordinates": [ -117.155988, 32.820366 ] } },
{ "type": "Feature", "properties": { "name": "Manna BBQ", "amenity": "restaurant" }, "geometry": { "type": "Point", "coordinates": [ -117.1553414, 32.820235 ] } },
{ "type": "Feature", "properties": { "name": "KFC", "amenity": "fast_food" }, "geometry": { "type": "Point", "coordinates": [ -117.155412, 32.817391 ] } },
{ "type": "Feature", "properties": { "name": "Poki One N Half", "amenity": "restaurant" }, "geometry": { "type": "Point", "coordinates": [ -117.1499538, 32.8196804 ] } },
{ "type": "Feature", "properties": { "name": "Starbucks", "amenity": "cafe" }, "geometry": { "type": "Point", "coordinates": [ -117.1494594, 32.8197188 ] } },
{ "type": "Feature", "properties": { "name": "Nishki Ramen", "amenity": "restaurant" }, "geometry": { "type": "Point", "coordinates": [ -117.1501484, 32.8196226 ] } },
{ "type": "Feature", "properties": { "name": "CVS Pharmacy", "amenity": "pharmacy" }, "geometry": { "type": "Point", "coordinates": [ -117.1514601, 32.8166296 ] } },
{ "type": "Feature", "properties": { "name": "Dirty Dan's Pure Platinum", "amenity": "stripclub;bar" }, "geometry": { "type": "Point", "coordinates": [ -117.1516587, 32.8148072 ] } },
{ "type": "Feature", "properties": { "name": "Costco Food Court", "amenity": "fast_food" }, "geometry": { "type": "Point", "coordinates": [ -117.154266, 32.8164347 ] } },
{ "type": "Feature", "properties": { "name": "76", "amenity": "fuel" }, "geometry": { "type": "Point", "coordinates": [ -117.1523098, 32.8139656 ] } },
{ "type": "Feature", "properties": { "name": "California Coast Credit Union", "amenity": "atm" }, "geometry": { "type": "Point", "coordinates": [ -117.12622, 32.8195117 ] } },
{ "type": "Feature", "properties": { "name": "FedEx", "amenity": "post_box" }, "geometry": { "type": "Point", "coordinates": [ -117.124528, 32.8214214 ] } },
{ "type": "Feature", "properties": { "name": "USPS", "amenity": "post_box" }, "geometry": { "type": "Point", "coordinates": [ -117.12354, 32.8162182 ] } },
{ "type": "Feature", "properties": { "name": "USPS", "amenity": "post_box" }, "geometry": { "type": "Point", "coordinates": [ -117.123536, 32.8162194 ] } },
{ "type": "Feature", "properties": { "name": "Maric College - San Diego", "amenity": "school" }, "geometry": { "type": "Point", "coordinates": [ -117.1348988, 32.8214135 ] } },
{ "type": "Feature", "properties": { "name": "Seedtime and Harvest Church", "amenity": "place_of_worship" }, "geometry": { "type": "Point", "coordinates": [ -117.1317913, 32.8198145 ] } },
{ "type": "Feature", "properties": { "name": "China Quick Wok", "amenity": "restaurant" }, "geometry": { "type": "Point", "coordinates": [ -117.183627, 32.8214377 ] } },
{ "type": "Feature", "properties": { "name": "Kroran Uyghur", "amenity": "restaurant" }, "geometry": { "type": "Point", "coordinates": [ -117.1835674, 32.8215699 ] } },
{ "type": "Feature", "properties": { "name": "Subway", "amenity": "fast_food" }, "geometry": { "type": "Point", "coordinates": [ -117.1836609, 32.8217277 ] } },
{ "type": "Feature", "properties": { "name": "Starbucks", "amenity": "cafe" }, "geometry": { "type": "Point", "coordinates": [ -117.1817318, 32.8199788 ] } },
{ "type": "Feature", "properties": { "name": "PostalAnnex", "amenity": "post_office" }, "geometry": { "type": "Point", "coordinates": [ -117.1817568, 32.8212741 ] } },
{ "type": "Feature", "properties": { "name": "Walgreens", "amenity": "pharmacy" }, "geometry": { "type": "Point", "coordinates": [ -117.1814401, 32.8199614 ] } },
{ "type": "Feature", "properties": { "name": "Kwik & Kleen", "amenity": "car_wash" }, "geometry": { "type": "Point", "coordinates": [ -117.1827719, 32.8223261 ] } },
{ "type": "Feature", "properties": { "name": "Boston Market", "amenity": "fast_food" }, "geometry": { "type": "Point", "coordinates": [ -117.181488, 32.8200196 ] } },
{ "type": "Feature", "properties": { "name": "Luna Grill", "amenity": "restaurant" }, "geometry": { "type": "Point", "coordinates": [ -117.1811729, 32.8185239 ] } },
{ "type": "Feature", "properties": { "name": "The Habit Burger Grill", "amenity": "fast_food" }, "geometry": { "type": "Point", "coordinates": [ -117.181244, 32.8186776 ] } },
{ "type": "Feature", "properties": { "name": "Rite Aid", "amenity": "pharmacy" }, "geometry": { "type": "Point", "coordinates": [ -117.1695645, 32.7851507 ] } },
{ "type": "Feature", "properties": { "name": "Starbucks", "amenity": "cafe" }, "geometry": { "type": "Point", "coordinates": [ -117.129568, 32.7799704 ] } },
{ "type": "Feature", "properties": { "name": "Luna Grill", "amenity": "restaurant" }, "geometry": { "type": "Point", "coordinates": [ -117.1292085, 32.7798947 ] } },
{ "type": "Feature", "properties": { "name": "New Thought Center for Creative Living", "amenity": "place_of_worship" }, "geometry": { "type": "Point", "coordinates": [ -117.1168163, 32.7778146 ] } },
{ "type": "Feature", "properties": { "name": "Terrace Café", "amenity": "cafe" }, "geometry": { "type": "Point", "coordinates": [ -117.1684706, 32.7636226 ] } },
{ "type": "Feature", "properties": { "name": "Lion Fountain", "amenity": "fountain" }, "geometry": { "type": "Point", "coordinates": [ -117.1690063, 32.7636629 ] } },
{ "type": "Feature", "properties": { "name": "United States Post Office", "amenity": "post_office" }, "geometry": { "type": "Point", "coordinates": [ -117.148972, 32.7691466 ] } },
{ "type": "Feature", "properties": { "name": "Pei Wei", "amenity": "restaurant" }, "geometry": { "type": "Point", "coordinates": [ -117.1527322, 32.7680715 ] } },
{ "type": "Feature", "properties": { "name": "Dairy Queen", "amenity": "fast_food" }, "geometry": { "type": "Point", "coordinates": [ -117.1472869, 32.7690722 ] } },
{ "type": "Feature", "properties": { "name": "Wetzel's Pretzels", "amenity": "fast_food" }, "geometry": { "type": "Point", "coordinates": [ -117.1472326, 32.7689891 ] } },
{ "type": "Feature", "properties": { "name": "Chipotle", "amenity": "fast_food" }, "geometry": { "type": "Point", "coordinates": [ -117.1532383, 32.7679517 ] } },
{ "type": "Feature", "properties": { "name": "Sammy's Woodfired Pizza", "amenity": "restaurant" }, "geometry": { "type": "Point", "coordinates": [ -117.1498394, 32.7708299 ] } },
{ "type": "Feature", "properties": { "name": "eVgo", "amenity": "charging_station" }, "geometry": { "type": "Point", "coordinates": [ -117.1502094, 32.7650197 ] } },
{ "type": "Feature", "properties": { "name": "eVgo", "amenity": "charging_station" }, "geometry": { "type": "Point", "coordinates": [ -117.1502082, 32.7650463 ] } },
{ "type": "Feature", "properties": { "name": "USD Public Safety", "amenity": "police" }, "geometry": { "type": "Point", "coordinates": [ -117.1903754, 32.7708373 ] } },
{ "type": "Feature", "properties": { "name": "Starbucks", "amenity": "cafe" }, "geometry": { "type": "Point", "coordinates": [ -117.139423, 32.7717633 ] } },
{ "type": "Feature", "properties": { "name": "Clairemont Christian Church", "amenity": "place_of_worship" }, "geometry": { "type": "Point", "coordinates": [ -117.2140368, 32.8216404 ] } },
{ "type": "Feature", "properties": { "name": "United Oil", "amenity": "fuel" }, "geometry": { "type": "Point", "coordinates": [ -117.206523, 32.8280005 ] } },
{ "type": "Feature", "properties": { "name": "North Clairemont Branch San Diego Public Library", "amenity": "library" }, "geometry": { "type": "Point", "coordinates": [ -117.206457, 32.8283728 ] } },
{ "type": "Feature", "properties": { "name": "Rock Church", "amenity": "place_of_worship" }, "geometry": { "type": "Point", "coordinates": [ -117.1293825, 32.8082296 ] } },
{ "type": "Feature", "properties": { "name": "Murphy Canyon Preschool", "amenity": "kindergarten" }, "geometry": { "type": "Point", "coordinates": [ -117.1210078, 32.8313001 ] } },
{ "type": "Feature", "properties": { "name": "Jersey Mike's Subs", "amenity": "fast_food" }, "geometry": { "type": "Point", "coordinates": [ -117.1160268, 32.8108072 ] } },
{ "type": "Feature", "properties": { "name": "Aero Dentistry Of San Diego", "amenity": "dentist" }, "geometry": { "type": "Point", "coordinates": [ -117.1161257, 32.8106876 ] } },
{ "type": "Feature", "properties": { "name": "Rolbertos", "amenity": "fast_food" }, "geometry": { "type": "Point", "coordinates": [ -117.1161675, 32.8106421 ] } },
{ "type": "Feature", "properties": { "name": "University of Phoenix - Kearny Mesa Campus", "amenity": "school" }, "geometry": { "type": "Point", "coordinates": [ -117.1167191, 32.8142418 ] } },
{ "type": "Feature", "properties": { "name": "San Diego Christian Worship Center", "amenity": "place_of_worship" }, "geometry": { "type": "Point", "coordinates": [ -117.1227345, 32.8205577 ] } },
{ "type": "Feature", "properties": { "name": "Urbane Cafe", "amenity": "restaurant" }, "geometry": { "type": "Point", "coordinates": [ -117.1967917, 32.7649043 ] } },
{ "type": "Feature", "properties": { "name": "Pita Pit", "amenity": "fast_food" }, "geometry": { "type": "Point", "coordinates": [ -117.1964754, 32.7646177 ] } },
{ "type": "Feature", "properties": { "name": "ZPizza", "amenity": "fast_food" }, "geometry": { "type": "Point", "coordinates": [ -117.1971707, 32.7648861 ] } },
{ "type": "Feature", "properties": { "name": "Mission Federal Credit Union", "amenity": "bank" }, "geometry": { "type": "Point", "coordinates": [ -117.1968837, 32.7649665 ] } },
{ "type": "Feature", "properties": { "name": "Sushi Freak", "amenity": "restaurant" }, "geometry": { "type": "Point", "coordinates": [ -117.1972292, 32.7647984 ] } },
{ "type": "Feature", "properties": { "name": "Starbucks", "amenity": "cafe" }, "geometry": { "type": "Point", "coordinates": [ -117.1970931, 32.7649453 ] } },
{ "type": "Feature", "properties": { "name": "Valencia Mexican Food", "amenity": "restaurant" }, "geometry": { "type": "Point", "coordinates": [ -117.1964405, 32.7653112 ] } },
{ "type": "Feature", "properties": { "name": "Waffle Spot", "amenity": "restaurant" }, "geometry": { "type": "Point", "coordinates": [ -117.1750553, 32.7587916 ] } },
{ "type": "Feature", "properties": { "name": "Quiznos", "amenity": "fast_food" }, "geometry": { "type": "Point", "coordinates": [ -117.159314, 32.770547 ] } },
{ "type": "Feature", "properties": { "name": "Clairemont Christian Fellowship", "amenity": "place_of_worship" }, "geometry": { "type": "Point", "coordinates": [ -117.1916842, 32.8264471 ] } },
{ "type": "Feature", "properties": { "name": "Community of Christ", "amenity": "place_of_worship" }, "geometry": { "type": "Point", "coordinates": [ -117.1910819, 32.8224939 ] } },
{ "type": "Feature", "properties": { "name": "Pangea Bakery Cafe", "amenity": "cafe" }, "geometry": { "type": "Point", "coordinates": [ -117.1542818, 32.8261494 ] } },
{ "type": "Feature", "properties": { "name": "KFMB Stations", "amenity": "studio" }, "geometry": { "type": "Point", "coordinates": [ -117.1566173, 32.8267698 ] } },
{ "type": "Feature", "properties": { "name": "Summit Lighthouse Study Group of San Diego", "amenity": "place_of_worship" }, "geometry": { "type": "Point", "coordinates": [ -117.1519855, 32.8262457 ] } },
{ "type": "Feature", "properties": { "name": "California Coast Credit Union", "amenity": "bank" }, "geometry": { "type": "Point", "coordinates": [ -117.1322089, 32.8258468 ] } },
{ "type": "Feature", "properties": { "name": "Balboa Branch San Diego Public Library", "amenity": "library" }, "geometry": { "type": "Point", "coordinates": [ -117.1749653, 32.8223204 ] } },
{ "type": "Feature", "properties": { "name": "San Diego City Fire Station 36", "amenity": "fire_station" }, "geometry": { "type": "Point", "coordinates": [ -117.1745199, 32.822353 ] } },
{ "type": "Feature", "properties": { "name": "Korean Calvary Church", "amenity": "place_of_worship" }, "geometry": { "type": "Point", "coordinates": [ -117.1703117, 32.7878272 ] } },
{ "type": "Feature", "properties": { "name": "Yum Yum Donut", "amenity": "fast_food" }, "geometry": { "type": "Point", "coordinates": [ -117.170953, 32.7843502 ] } },
{ "type": "Feature", "properties": { "name": "Pizza Hut", "amenity": "restaurant" }, "geometry": { "type": "Point", "coordinates": [ -117.171045, 32.7837882 ] } },
{ "type": "Feature", "properties": { "name": "McDonald's", "amenity": "fast_food" }, "geometry": { "type": "Point", "coordinates": [ -117.170114, 32.785708 ] } },
{ "type": "Feature", "properties": { "name": "Holy Family Saint Vincent de Paul Church", "amenity": "place_of_worship" }, "geometry": { "type": "Point", "coordinates": [ -117.1703823, 32.7799893 ] } },
{ "type": "Feature", "properties": { "name": "Apostolic Church", "amenity": "place_of_worship" }, "geometry": { "type": "Point", "coordinates": [ -117.1703117, 32.7806052 ] } },
{ "type": "Feature", "properties": { "name": "Holy Family School", "amenity": "school" }, "geometry": { "type": "Point", "coordinates": [ -117.1692005, 32.7800496 ] } },
{ "type": "Feature", "properties": { "name": "Padre Gold", "amenity": "bar" }, "geometry": { "type": "Point", "coordinates": [ -117.1659024, 32.7909682 ] } },
{ "type": "Feature", "properties": { "name": "Pathway Christian Fellowship Church", "amenity": "place_of_worship" }, "geometry": { "type": "Point", "coordinates": [ -117.1808744, 32.8107997 ] } },
{ "type": "Feature", "properties": { "name": "Assembly of God of San Diego at Clairemont", "amenity": "place_of_worship" }, "geometry": { "type": "Point", "coordinates": [ -117.1809376, 32.8107997 ] } },
{ "type": "Feature", "properties": { "name": "Del Sol Academy", "amenity": "school" }, "geometry": { "type": "Point", "coordinates": [ -117.1980314, 32.8033956 ] } },
{ "type": "Feature", "properties": { "name": "7-Eleven", "amenity": "fuel" }, "geometry": { "type": "Point", "coordinates": [ -117.121998, 32.8079523 ] } },
{ "type": "Feature", "properties": { "name": "Starbucks", "amenity": "cafe" }, "geometry": { "type": "Point", "coordinates": [ -117.115173, 32.8085302 ] } },
{ "type": "Feature", "properties": { "name": "Sab-E-Lee", "amenity": "restaurant" }, "geometry": { "type": "Point", "coordinates": [ -117.1708989, 32.7844491 ] } },
{ "type": "Feature", "properties": { "name": "Linda Vista Branch San Diego Public Library", "amenity": "library" }, "geometry": { "type": "Point", "coordinates": [ -117.17004, 32.783262 ] } },
{ "type": "Feature", "properties": { "name": "San Diego City Fire Station 23", "amenity": "fire_station" }, "geometry": { "type": "Point", "coordinates": [ -117.1715868, 32.7829649 ] } },
{ "type": "Feature", "properties": { "name": "Linda Vista Presbyterian Church", "amenity": "place_of_worship" }, "geometry": { "type": "Point", "coordinates": [ -117.170034, 32.7825495 ] } },
{ "type": "Feature", "properties": { "name": "Canyon Ridge Baptist Church", "amenity": "place_of_worship" }, "geometry": { "type": "Point", "coordinates": [ -117.1727304, 32.7825668 ] } },
{ "type": "Feature", "properties": { "name": "Oasis Christian Fellowship Church", "amenity": "place_of_worship" }, "geometry": { "type": "Point", "coordinates": [ -117.1617003, 32.7889383 ] } },
{ "type": "Feature", "properties": { "name": "Maritza's Mexican Food", "amenity": "restaurant" }, "geometry": { "type": "Point", "coordinates": [ -117.1832761, 32.8074425 ] } },
{ "type": "Feature", "properties": { "name": "The Cheesecake Factory", "amenity": "restaurant" }, "geometry": { "type": "Point", "coordinates": [ -117.1654555, 32.7692555 ] } },
{ "type": "Feature", "properties": { "name": "Sharetea", "amenity": "cafe" }, "geometry": { "type": "Point", "coordinates": [ -117.1959669, 32.7659595 ] } },
{ "type": "Feature", "properties": { "name": "J&T Thai Street Food", "amenity": "restaurant" }, "geometry": { "type": "Point", "coordinates": [ -117.196225, 32.765696 ] } },
{ "type": "Feature", "properties": { "name": "Little Caesars", "amenity": "fast_food" }, "geometry": { "type": "Point", "coordinates": [ -117.2014418, 32.7705082 ] } },
{ "type": "Feature", "properties": { "name": "Jack in the Box", "amenity": "fast_food" }, "geometry": { "type": "Point", "coordinates": [ -117.167948, 32.78977 ] } },
{ "type": "Feature", "properties": { "name": "Linda Vista Church of Christ", "amenity": "place_of_worship" }, "geometry": { "type": "Point", "coordinates": [ -117.1650338, 32.7897716 ] } },
{ "type": "Feature", "properties": { "name": "Up2You Cafe", "amenity": "cafe" }, "geometry": { "type": "Point", "coordinates": [ -117.1591071, 32.8014846 ] } },
{ "type": "Feature", "properties": { "name": "Homestyle Hawaiian", "amenity": "restaurant" }, "geometry": { "type": "Point", "coordinates": [ -117.1590722, 32.801724 ] } },
{ "type": "Feature", "properties": { "name": "Phở Pasteur Restaurant", "amenity": "restaurant" }, "geometry": { "type": "Point", "coordinates": [ -117.1584564, 32.8016337 ] } },
{ "type": "Feature", "properties": { "name": "Stanley E Foster Construction Technology Academy", "amenity": "school" }, "geometry": { "type": "Point", "coordinates": [ -117.159025, 32.8010224 ] } },
{ "type": "Feature", "properties": { "name": "The Life Church Mission Bay", "amenity": "place_of_worship" }, "geometry": { "type": "Point", "coordinates": [ -117.2033774, 32.789626 ] } },
{ "type": "Feature", "properties": { "name": "Subway", "amenity": "fast_food" }, "geometry": { "type": "Point", "coordinates": [ -117.192489, 32.79457 ] } },
{ "type": "Feature", "properties": { "name": "Bert's Bistro", "amenity": "restaurant" }, "geometry": { "type": "Point", "coordinates": [ -117.1946214, 32.7719154 ] } },
{ "type": "Feature", "properties": { "name": "Sojourners Christian Church", "amenity": "place_of_worship" }, "geometry": { "type": "Point", "coordinates": [ -117.2042018, 32.7828271 ] } },
{ "type": "Feature", "properties": { "name": "Kingdom Hall of Jehovahs Witnesses", "amenity": "place_of_worship" }, "geometry": { "type": "Point", "coordinates": [ -117.1775342, 32.7725497 ] } },
{ "type": "Feature", "properties": { "name": "Kingdom Hall of Jehovahs Witnesses Clairemont Unit", "amenity": "place_of_worship" }, "geometry": { "type": "Point", "coordinates": [ -117.1845589, 32.8024138 ] } },
{ "type": "Feature", "properties": { "name": "Harvest Taco Shop", "amenity": "fast_food" }, "geometry": { "type": "Point", "coordinates": [ -117.1274101, 32.8323851 ] } },
{ "type": "Feature", "properties": { "name": "Family Dentistry", "amenity": "dentist" }, "geometry": { "type": "Point", "coordinates": [ -117.1279888, 32.8324669 ] } },
{ "type": "Feature", "properties": { "name": "Cafe Fresh", "amenity": "fast_food" }, "geometry": { "type": "Point", "coordinates": [ -117.1249932, 32.8299557 ] } },
{ "type": "Feature", "properties": { "name": "Panda Express", "amenity": "fast_food" }, "geometry": { "type": "Point", "coordinates": [ -117.130243, 32.8310514 ] } },
{ "type": "Feature", "properties": { "name": "China Express", "amenity": "restaurant" }, "geometry": { "type": "Point", "coordinates": [ -117.1280023, 32.8308019 ] } },
{ "type": "Feature", "properties": { "name": "Domo Kitchen", "amenity": "restaurant" }, "geometry": { "type": "Point", "coordinates": [ -117.1272292, 32.8307692 ] } },
{ "type": "Feature", "properties": { "name": "Poki One N Half", "amenity": "restaurant" }, "geometry": { "type": "Point", "coordinates": [ -117.1282812, 32.8307979 ] } },
{ "type": "Feature", "properties": { "name": "USPS", "amenity": "post_box" }, "geometry": { "type": "Point", "coordinates": [ -117.126664, 32.8198919 ] } },
{ "type": "Feature", "properties": { "name": "Cibao Cafe", "amenity": "cafe" }, "geometry": { "type": "Point", "coordinates": [ -117.126421, 32.8218239 ] } },
{ "type": "Feature", "properties": { "name": "Gethsemane Lutheran Church", "amenity": "place_of_worship" }, "geometry": { "type": "Point", "coordinates": [ -117.1255879, 32.7939385 ] } },
{ "type": "Feature", "properties": { "name": "Trinity Korean Presbyterian Church", "amenity": "place_of_worship" }, "geometry": { "type": "Point", "coordinates": [ -117.1256311, 32.7928828 ] } },
{ "type": "Feature", "properties": { "name": "Korean Full Gospel Church", "amenity": "place_of_worship" }, "geometry": { "type": "Point", "coordinates": [ -117.1261435, 32.7928274 ] } },
{ "type": "Feature", "properties": { "name": "Subway", "amenity": "fast_food" }, "geometry": { "type": "Point", "coordinates": [ -117.1282601, 32.7796548 ] } },
{ "type": "Feature", "properties": { "name": "IHOP", "amenity": "restaurant" }, "geometry": { "type": "Point", "coordinates": [ -117.1287992, 32.7797518 ] } },
{ "type": "Feature", "properties": { "name": "Fortune Cookie Express", "amenity": "fast_food" }, "geometry": { "type": "Point", "coordinates": [ -117.1772269, 32.8190454 ] } },
{ "type": "Feature", "properties": { "name": "Pieology Pizzeria", "amenity": "restaurant" }, "geometry": { "type": "Point", "coordinates": [ -117.1805564, 32.8195006 ] } },
{ "type": "Feature", "properties": { "name": "Panda Express", "amenity": "fast_food" }, "geometry": { "type": "Point", "coordinates": [ -117.180906, 32.8193948 ] } },
{ "type": "Feature", "properties": { "name": "Sufi Mediterranean Cuisine", "amenity": "restaurant" }, "geometry": { "type": "Point", "coordinates": [ -117.1777581, 32.8189621 ] } },
{ "type": "Feature", "properties": { "name": "The Blarney Stone", "amenity": "pub" }, "geometry": { "type": "Point", "coordinates": [ -117.1784526, 32.8183878 ] } },
{ "type": "Feature", "properties": { "name": "Baskin-Robbins", "amenity": "ice_cream" }, "geometry": { "type": "Point", "coordinates": [ -117.1807132, 32.8194542 ] } },
{ "type": "Feature", "properties": { "name": "85°C Bakery", "amenity": "cafe" }, "geometry": { "type": "Point", "coordinates": [ -117.1804194, 32.8195661 ] } },
{ "type": "Feature", "properties": { "name": "The UPS Store", "amenity": "post_office" }, "geometry": { "type": "Point", "coordinates": [ -117.178627, 32.8188658 ] } },
{ "type": "Feature", "properties": { "name": "Jersey Mike's Subs", "amenity": "fast_food" }, "geometry": { "type": "Point", "coordinates": [ -117.178599, 32.818833 ] } },
{ "type": "Feature", "properties": { "name": "San Diego County Credit Union", "amenity": "bank" }, "geometry": { "type": "Point", "coordinates": [ -117.1812076, 32.8192895 ] } },
{ "type": "Feature", "properties": { "name": "Papa John's", "amenity": "fast_food" }, "geometry": { "type": "Point", "coordinates": [ -117.1802187, 32.8169875 ] } },
{ "type": "Feature", "properties": { "name": "Clairemont Faith Center", "amenity": "place_of_worship" }, "geometry": { "type": "Point", "coordinates": [ -117.1678117, 32.8139377 ] } },
{ "type": "Feature", "properties": { "name": "Science Connections and Technology Senior High School", "amenity": "school" }, "geometry": { "type": "Point", "coordinates": [ -117.159025, 32.8010224 ] } },
{ "type": "Feature", "properties": { "name": "Starbucks", "amenity": "cafe" }, "geometry": { "type": "Point", "coordinates": [ -117.1571032, 32.8017059 ] } },
{ "type": "Feature", "properties": { "name": "Subway", "amenity": "fast_food" }, "geometry": { "type": "Point", "coordinates": [ -117.1572253, 32.8016209 ] } },
{ "type": "Feature", "properties": { "name": "Maggie's Cafe", "amenity": "restaurant" }, "geometry": { "type": "Point", "coordinates": [ -117.1404689, 32.8019174 ] } },
{ "type": "Feature", "properties": { "name": "Reformation Lutheran School", "amenity": "school" }, "geometry": { "type": "Point", "coordinates": [ -117.1725514, 32.8279493 ] } },
{ "type": "Feature", "properties": { "name": "Rubio's Baja Grill", "amenity": "fast_food" }, "geometry": { "type": "Point", "coordinates": [ -117.1345795, 32.772445 ] } },
{ "type": "Feature", "properties": { "name": "Longfellow Elementary School", "amenity": "school" }, "geometry": { "type": "Point", "coordinates": [ -117.1889896, 32.7834772 ] } },
{ "type": "Feature", "properties": { "name": "Perlman Clinic Clairemont", "amenity": "doctors" }, "geometry": { "type": "Point", "coordinates": [ -117.2101852, 32.8093114 ] } },
{ "type": "Feature", "properties": { "name": "Pickup 10:30am", "amenity": "post_box" }, "geometry": { "type": "Point", "coordinates": [ -117.2110111, 32.8152597 ] } },
{ "type": "Feature", "properties": { "name": "Oconnells Sports Lounge", "amenity": "bar" }, "geometry": { "type": "Point", "coordinates": [ -117.2023734, 32.7719456 ] } },
{ "type": "Feature", "properties": { "name": "Canyon View Church of Christ", "amenity": "place_of_worship" }, "geometry": { "type": "Point", "coordinates": [ -117.1978127, 32.8133819 ] } },
{ "type": "Feature", "properties": { "name": "International Action Ministries", "amenity": "place_of_worship" }, "geometry": { "type": "Point", "coordinates": [ -117.2007562, 32.7893512 ] } },
{ "type": "Feature", "properties": { "name": "The Noble Chef", "amenity": "restaurant" }, "geometry": { "type": "Point", "coordinates": [ -117.1748326, 32.8196834 ] } },
{ "type": "Feature", "properties": { "name": "Big Island Coffee", "amenity": "cafe" }, "geometry": { "type": "Point", "coordinates": [ -117.174184, 32.8200635 ] } },
{ "type": "Feature", "properties": { "name": "Watermill Express", "amenity": "water_dispenser" }, "geometry": { "type": "Point", "coordinates": [ -117.1748424, 32.8199401 ] } },
{ "type": "Feature", "properties": { "name": "Kura Revolving Sushi Bar", "amenity": "restaurant" }, "geometry": { "type": "Point", "coordinates": [ -117.1546195, 32.8240566 ] } },
{ "type": "Feature", "properties": { "name": "Subway", "amenity": "fast_food" }, "geometry": { "type": "Point", "coordinates": [ -117.1578062, 32.82224 ] } },
{ "type": "Feature", "properties": { "name": "Tasty Noodle House", "amenity": "restaurant" }, "geometry": { "type": "Point", "coordinates": [ -117.155886, 32.8248101 ] } },
{ "type": "Feature", "properties": { "name": "CRAB HUT 墨西哥海鲜餐厅", "amenity": "restaurant" }, "geometry": { "type": "Point", "coordinates": [ -117.1558212, 32.8246749 ] } },
{ "type": "Feature", "properties": { "name": "Balboa Veterinary Hospital", "amenity": "veterinary" }, "geometry": { "type": "Point", "coordinates": [ -117.1524792, 32.8215068 ] } },
{ "type": "Feature", "properties": { "name": "Southern Lites Collective", "amenity": "dispensary" }, "geometry": { "type": "Point", "coordinates": [ -117.1493671, 32.8210923 ] } },
{ "type": "Feature", "properties": { "name": "3 Day Suit Broker", "amenity": "bar" }, "geometry": { "type": "Point", "coordinates": [ -117.150707, 32.82128 ] } },
{ "type": "Feature", "properties": { "name": "Chef Chin's", "amenity": "restaurant" }, "geometry": { "type": "Point", "coordinates": [ -117.1548318, 32.8210423 ] } },
{ "type": "Feature", "properties": { "name": "Square bar café", "amenity": "cafe" }, "geometry": { "type": "Point", "coordinates": [ -117.1554785, 32.8212195 ] } },
{ "type": "Feature", "properties": { "name": "Chopstix Too", "amenity": "restaurant" }, "geometry": { "type": "Point", "coordinates": [ -117.14946, 32.8195971 ] } },
{ "type": "Feature", "properties": { "name": "Holy Angels Byzantine Catholic Church", "amenity": "place_of_worship" }, "geometry": { "type": "Point", "coordinates": [ -117.1445383, 32.7867155 ] } },
{ "type": "Feature", "properties": { "name": "Costco Gasoline", "amenity": "fuel" }, "geometry": { "type": "Point", "coordinates": [ -117.127294, 32.782955 ] } },
{ "type": "Feature", "properties": { "name": "San Diego County Credit Union", "amenity": "bank" }, "geometry": { "type": "Point", "coordinates": [ -117.129379, 32.7799599 ] } },
{ "type": "Feature", "properties": { "name": "McDonald's", "amenity": "fast_food" }, "geometry": { "type": "Point", "coordinates": [ -117.1279348, 32.7835308 ] } },
{ "type": "Feature", "properties": { "name": "Fast Times", "amenity": "bar" }, "geometry": { "type": "Point", "coordinates": [ -117.1931807, 32.7951718 ] } },
{ "type": "Feature", "properties": { "name": "Pioneer Ocean View United Church of Christ", "amenity": "place_of_worship" }, "geometry": { "type": "Point", "coordinates": [ -117.194534, 32.7878593 ] } },
{ "type": "Feature", "properties": { "name": "Mission Village Southern Church", "amenity": "place_of_worship" }, "geometry": { "type": "Point", "coordinates": [ -117.1283659, 32.8061603 ] } },
{ "type": "Feature", "properties": { "name": "Bear Buns Bakery And Cafe", "amenity": "cafe" }, "geometry": { "type": "Point", "coordinates": [ -117.1396604, 32.8019833 ] } },
{ "type": "Feature", "properties": { "name": "USPS", "amenity": "post_box" }, "geometry": { "type": "Point", "coordinates": [ -117.140089, 32.8015471 ] } },
{ "type": "Feature", "properties": { "name": "USPS", "amenity": "post_box" }, "geometry": { "type": "Point", "coordinates": [ -117.140086, 32.801554 ] } },
{ "type": "Feature", "properties": { "name": "Saint Columba Catholic Church", "amenity": "place_of_worship" }, "geometry": { "type": "Point", "coordinates": [ -117.1339217, 32.8042159 ] } },
{ "type": "Feature", "properties": { "name": "Saint Columbia School", "amenity": "school" }, "geometry": { "type": "Point", "coordinates": [ -117.1332397, 32.8043516 ] } },
{ "type": "Feature", "properties": { "name": "La Gran Terraza", "amenity": "restaurant" }, "geometry": { "type": "Point", "coordinates": [ -117.1881277, 32.772725 ] } },
{ "type": "Feature", "properties": { "name": "Founders Hall", "amenity": "university" }, "geometry": { "type": "Point", "coordinates": [ -117.1918345, 32.7716109 ] } },
{ "type": "Feature", "properties": { "name": "Shiley Theater", "amenity": "theatre" }, "geometry": { "type": "Point", "coordinates": [ -117.1930434, 32.7722285 ] } },
{ "type": "Feature", "properties": { "name": "The Church of the Immaculata", "amenity": "place_of_worship" }, "geometry": { "type": "Point", "coordinates": [ -117.1908195, 32.7723416 ] } },
{ "type": "Feature", "properties": { "name": "Student Health Center", "amenity": "doctors" }, "geometry": { "type": "Point", "coordinates": [ -117.1901877, 32.7723935 ] } },
{ "type": "Feature", "properties": { "name": "Aromas", "amenity": "cafe" }, "geometry": { "type": "Point", "coordinates": [ -117.190134, 32.7720935 ] } },
{ "type": "Feature", "properties": { "name": "Founders Chapel", "amenity": "place_of_worship" }, "geometry": { "type": "Point", "coordinates": [ -117.1920062, 32.7723258 ] } },
{ "type": "Feature", "properties": { "name": "USD School of law", "amenity": "university" }, "geometry": { "type": "Point", "coordinates": [ -117.1888447, 32.7715639 ] } },
{ "type": "Feature", "properties": { "name": "The Art Institute of California - San Diego", "amenity": "college" }, "geometry": { "type": "Point", "coordinates": [ -117.1554185, 32.7782728 ] } },
{ "type": "Feature", "properties": { "name": "Hazard Center Auto Mall", "amenity": "fuel" }, "geometry": { "type": "Point", "coordinates": [ -117.157994, 32.7726343 ] } },
{ "type": "Feature", "properties": { "name": "Subway", "amenity": "fast_food" }, "geometry": { "type": "Point", "coordinates": [ -117.1558221, 32.774923 ] } },
{ "type": "Feature", "properties": { "name": "Burger King", "amenity": "fast_food" }, "geometry": { "type": "Point", "coordinates": [ -117.1546503, 32.7763538 ] } },
{ "type": "Feature", "properties": { "name": "Einstein Bros. Bagels", "amenity": "fast_food" }, "geometry": { "type": "Point", "coordinates": [ -117.157454, 32.7740588 ] } },
{ "type": "Feature", "properties": { "name": "Paradise Yogurt", "amenity": "fast_food" }, "geometry": { "type": "Point", "coordinates": [ -117.1563783, 32.7751588 ] } },
{ "type": "Feature", "properties": { "name": "Pacific College of Oriental Medicine", "amenity": "school" }, "geometry": { "type": "Point", "coordinates": [ -117.1600342, 32.7794268 ] } },
{ "type": "Feature", "properties": { "name": "Del Taco", "amenity": "fast_food" }, "geometry": { "type": "Point", "coordinates": [ -117.153805, 32.773085 ] } },
{ "type": "Feature", "properties": { "name": "Kiko’s Seafood", "amenity": "restaurant" }, "geometry": { "type": "Point", "coordinates": [ -117.1547193, 32.7738908 ] } },
{ "type": "Feature", "properties": { "name": "SanSai Japanese Grill", "amenity": "fast_food" }, "geometry": { "type": "Point", "coordinates": [ -117.1558627, 32.771238 ] } },
{ "type": "Feature", "properties": { "name": "Ultrastar Cinemas Mission Valley", "amenity": "cinema" }, "geometry": { "type": "Point", "coordinates": [ -117.158808, 32.7706681 ] } },
{ "type": "Feature", "properties": { "name": "Buga Korean BBQ", "amenity": "restaurant" }, "geometry": { "type": "Point", "coordinates": [ -117.1725727, 32.8342681 ] } },
{ "type": "Feature", "properties": { "name": "Sake Sushi", "amenity": "restaurant" }, "geometry": { "type": "Point", "coordinates": [ -117.1747797, 32.8346667 ] } },
{ "type": "Feature", "properties": { "name": "STP Bar & Grill", "amenity": "restaurant" }, "geometry": { "type": "Point", "coordinates": [ -117.1738804, 32.8340044 ] } },
{ "type": "Feature", "properties": { "name": "The Hungry Stick", "amenity": "bar" }, "geometry": { "type": "Point", "coordinates": [ -117.189671, 32.834852 ] } },
{ "type": "Feature", "properties": { "name": "Cotixan", "amenity": "restaurant" }, "geometry": { "type": "Point", "coordinates": [ -117.1844071, 32.8229233 ] } },
{ "type": "Feature", "properties": { "name": "Amazon Locker", "amenity": "vending_machine" }, "geometry": { "type": "Point", "coordinates": [ -117.1844394, 32.8226319 ] } },
{ "type": "Feature", "properties": { "name": "Thai Time III", "amenity": "restaurant" }, "geometry": { "type": "Point", "coordinates": [ -117.1837793, 32.8213897 ] } },
{ "type": "Feature", "properties": { "name": "Little Caesars", "amenity": "fast_food" }, "geometry": { "type": "Point", "coordinates": [ -117.1838583, 32.8213627 ] } },
{ "type": "Feature", "properties": { "name": "Dickey's Barbecue Pit", "amenity": "restaurant" }, "geometry": { "type": "Point", "coordinates": [ -117.179885, 32.8207102 ] } },
{ "type": "Feature", "properties": { "name": "Vallerta Express", "amenity": "fast_food" }, "geometry": { "type": "Point", "coordinates": [ -117.1825728, 32.8213411 ] } },
{ "type": "Feature", "properties": { "name": "Native Foods", "amenity": "restaurant" }, "geometry": { "type": "Point", "coordinates": [ -117.179903, 32.8207976 ] } },
{ "type": "Feature", "properties": { "name": "Honey Baked Ham", "amenity": "fast_food" }, "geometry": { "type": "Point", "coordinates": [ -117.182419, 32.8211197 ] } },
{ "type": "Feature", "properties": { "name": "California Coast Credit Union", "amenity": "bank" }, "geometry": { "type": "Point", "coordinates": [ -117.182162, 32.8208136 ] } },
{ "type": "Feature", "properties": { "name": "Yogurtland", "amenity": "ice_cream" }, "geometry": { "type": "Point", "coordinates": [ -117.1790445, 32.820551 ] } },
{ "type": "Feature", "properties": { "name": "76", "amenity": "fuel" }, "geometry": { "type": "Point", "coordinates": [ -117.178658, 32.82052 ] } },
{ "type": "Feature", "properties": { "name": "Islamic Center of San Diego", "amenity": "place_of_worship" }, "geometry": { "type": "Point", "coordinates": [ -117.1652366, 32.8205766 ] } },
{ "type": "Feature", "properties": { "name": "William Taft Post Office", "amenity": "post_office" }, "geometry": { "type": "Point", "coordinates": [ -117.2019916, 32.8337858 ] } },
{ "type": "Feature", "properties": { "name": "Riverfront Annex Post Office", "amenity": "post_office" }, "geometry": { "type": "Point", "coordinates": [ -117.1350691, 32.7722871 ] } },
{ "type": "Feature", "properties": { "name": "Outback Steakhouse", "amenity": "restaurant" }, "geometry": { "type": "Point", "coordinates": [ -117.1497503, 32.76786 ] } },
{ "type": "Feature", "properties": { "name": "Nami", "amenity": "restaurant" }, "geometry": { "type": "Point", "coordinates": [ -117.1489318, 32.7690254 ] } },
{ "type": "Feature", "properties": { "name": "Bank of America", "amenity": "atm" }, "geometry": { "type": "Point", "coordinates": [ -117.147336, 32.7692781 ] } },
{ "type": "Feature", "properties": { "name": "Capriotti's Sandwich Shop", "amenity": "fast_food" }, "geometry": { "type": "Point", "coordinates": [ -117.1496765, 32.7707275 ] } },
{ "type": "Feature", "properties": { "name": "New Life Center", "amenity": "place_of_worship" }, "geometry": { "type": "Point", "coordinates": [ -117.1421207, 32.7684908 ] } },
{ "type": "Feature", "properties": { "name": "Kasi", "amenity": "restaurant" }, "geometry": { "type": "Point", "coordinates": [ -117.1445848, 32.7758307 ] } },
{ "type": "Feature", "properties": { "name": "Wendy's", "amenity": "fast_food" }, "geometry": { "type": "Point", "coordinates": [ -117.1464883, 32.774536 ] } },
{ "type": "Feature", "properties": { "name": "Burger King", "amenity": "fast_food" }, "geometry": { "type": "Point", "coordinates": [ -117.1731155, 32.8199403 ] } },
{ "type": "Feature", "properties": { "name": "Linda Vista Second Baptist Church", "amenity": "place_of_worship" }, "geometry": { "type": "Point", "coordinates": [ -117.1665549, 32.7935124 ] } },
{ "type": "Feature", "properties": { "name": "Riley Special Education School", "amenity": "school" }, "geometry": { "type": "Point", "coordinates": [ -117.1788777, 32.8092525 ] } },
{ "type": "Feature", "properties": { "name": "New Dawn at Riley School", "amenity": "school" }, "geometry": { "type": "Point", "coordinates": [ -117.1795429, 32.8092525 ] } },
{ "type": "Feature", "properties": { "name": "Korean Ban Suk Presbyterian Church", "amenity": "place_of_worship" }, "geometry": { "type": "Point", "coordinates": [ -117.1808205, 32.810782 ] } },
{ "type": "Feature", "properties": { "name": "Foundation College of San Diego", "amenity": "school" }, "geometry": { "type": "Point", "coordinates": [ -117.1611694, 32.7613245 ] } },
{ "type": "Feature", "properties": { "name": "UPS", "amenity": "post_box" }, "geometry": { "type": "Point", "coordinates": [ -117.140299, 32.8014627 ] } },
{ "type": "Feature", "properties": { "name": "Trisler's San Diego Wine Bar", "amenity": "bar" }, "geometry": { "type": "Point", "coordinates": [ -117.1425692, 32.7740462 ] } },
{ "type": "Feature", "properties": { "name": "Mega Fuel", "amenity": "fuel" }, "geometry": { "type": "Point", "coordinates": [ -117.1633923, 32.8322424 ] } },
{ "type": "Feature", "properties": { "name": "Subway", "amenity": "fast_food" }, "geometry": { "type": "Point", "coordinates": [ -117.1632619, 32.8322687 ] } },
{ "type": "Feature", "properties": { "name": "San Diego County Credit Union", "amenity": "atm" }, "geometry": { "type": "Point", "coordinates": [ -117.164425, 32.8318455 ] } },
{ "type": "Feature", "properties": { "name": "Starbucks", "amenity": "cafe" }, "geometry": { "type": "Point", "coordinates": [ -117.1659404, 32.8323543 ] } },
{ "type": "Feature", "properties": { "name": "Elijah's Restaurant & Catering", "amenity": "restaurant" }, "geometry": { "type": "Point", "coordinates": [ -117.1650191, 32.8315721 ] } },
{ "type": "Feature", "properties": { "name": "Spa & Etc.", "amenity": "spa" }, "geometry": { "type": "Point", "coordinates": [ -117.1659815, 32.8319041 ] } },
{ "type": "Feature", "properties": { "name": "Berries & Beans", "amenity": "fast_food" }, "geometry": { "type": "Point", "coordinates": [ -117.1753349, 32.8346825 ] } },
{ "type": "Feature", "properties": { "name": "Bismillah Kabob-n-Curry", "amenity": "restaurant" }, "geometry": { "type": "Point", "coordinates": [ -117.1736551, 32.8344348 ] } },
{ "type": "Feature", "properties": { "name": "Sipz Fusion Cafe", "amenity": "restaurant" }, "geometry": { "type": "Point", "coordinates": [ -117.1738615, 32.8336437 ] } },
{ "type": "Feature", "properties": { "name": "Subway", "amenity": "fast_food" }, "geometry": { "type": "Point", "coordinates": [ -117.1736724, 32.8333982 ] } },
{ "type": "Feature", "properties": { "name": "C&R", "amenity": "fuel" }, "geometry": { "type": "Point", "coordinates": [ -117.1752394, 32.8340941 ] } },
{ "type": "Feature", "properties": { "name": "Di-Chan", "amenity": "restaurant" }, "geometry": { "type": "Point", "coordinates": [ -117.1730179, 32.8334004 ] } },
{ "type": "Feature", "properties": { "name": "The Church of Jesus Christ of Latter-day Saints", "amenity": "place_of_worship" }, "geometry": { "type": "Point", "coordinates": [ -117.1704963, 32.8294674 ] } },
{ "type": "Feature", "properties": { "name": "East Clairemont Southern Baptist Church", "amenity": "place_of_worship" }, "geometry": { "type": "Point", "coordinates": [ -117.1755898, 32.8283817 ] } },
{ "type": "Feature", "properties": { "name": "Carriage House Cocktails", "amenity": "bar" }, "geometry": { "type": "Point", "coordinates": [ -117.1557652, 32.8270118 ] } },
{ "type": "Feature", "properties": { "name": "K-Cuisine", "amenity": "restaurant" }, "geometry": { "type": "Point", "coordinates": [ -117.155628, 32.8263738 ] } },
{ "type": "Feature", "properties": { "name": "RB crawfish seafood lounge", "amenity": "restaurant" }, "geometry": { "type": "Point", "coordinates": [ -117.15574, 32.8263811 ] } },
{ "type": "Feature", "properties": { "name": "Raki Raki Ramen", "amenity": "restaurant" }, "geometry": { "type": "Point", "coordinates": [ -117.1554697, 32.8247116 ] } },
{ "type": "Feature", "properties": { "name": "76", "amenity": "fuel" }, "geometry": { "type": "Point", "coordinates": [ -117.1595177, 32.8213401 ] } },
{ "type": "Feature", "properties": { "name": "Hi Street Kitchen + Tap", "amenity": "restaurant" }, "geometry": { "type": "Point", "coordinates": [ -117.1558521, 32.8213447 ] } },
{ "type": "Feature", "properties": { "name": "Islamic School of San Diego", "amenity": "school" }, "geometry": { "type": "Point", "coordinates": [ -117.1669784, 32.8200486 ] } },
{ "type": "Feature", "properties": { "name": "Aladdin Cafe", "amenity": "restaurant" }, "geometry": { "type": "Point", "coordinates": [ -117.1755165, 32.8346895 ] } },
{ "type": "Feature", "properties": { "name": "Peter Ds", "amenity": "bar" }, "geometry": { "type": "Point", "coordinates": [ -117.1797698, 32.8338179 ] } },
{ "type": "Feature", "properties": { "name": "Korean Church of the Nazerene", "amenity": "place_of_worship" }, "geometry": { "type": "Point", "coordinates": [ -117.1794121, 32.8329764 ] } },
{ "type": "Feature", "properties": { "name": "Rubio's Baja Grill", "amenity": "fast_food" }, "geometry": { "type": "Point", "coordinates": [ -117.1584186, 32.8335181 ] } },
{ "type": "Feature", "properties": { "name": "Dr. Katnik D.D.S.", "amenity": "dentist" }, "geometry": { "type": "Point", "coordinates": [ -117.1606079, 32.8317116 ] } },
{ "type": "Feature", "properties": { "name": "Subway", "amenity": "fast_food" }, "geometry": { "type": "Point", "coordinates": [ -117.149588, 32.833282 ] } },
{ "type": "Feature", "properties": { "name": "GoldMax", "amenity": "gold_exchange" }, "geometry": { "type": "Point", "coordinates": [ -117.1530134, 32.8329773 ] } },
{ "type": "Feature", "properties": { "name": "Lindsey Veterinary Care", "amenity": "veterinary" }, "geometry": { "type": "Point", "coordinates": [ -117.1543263, 32.833021 ] } },
{ "type": "Feature", "properties": { "name": "Carl's Jr.", "amenity": "fast_food" }, "geometry": { "type": "Point", "coordinates": [ -117.1589228, 32.8330786 ] } },
{ "type": "Feature", "properties": { "name": "Congregation Dor Hadash Reconstructionist Judaism", "amenity": "place_of_worship" }, "geometry": { "type": "Point", "coordinates": [ -117.146103, 32.8304491 ] } },
{ "type": "Feature", "properties": { "name": "China Max Chinese Seafood Restaurant", "amenity": "restaurant" }, "geometry": { "type": "Point", "coordinates": [ -117.1548869, 32.826768 ] } },
{ "type": "Feature", "properties": { "name": "Cathay Bank", "amenity": "bank" }, "geometry": { "type": "Point", "coordinates": [ -117.154848, 32.8263626 ] } },
{ "type": "Feature", "properties": { "name": "Starbucks", "amenity": "cafe" }, "geometry": { "type": "Point", "coordinates": [ -117.1537283, 32.8304545 ] } },
{ "type": "Feature", "properties": { "name": "Pho T Cali", "amenity": "restaurant" }, "geometry": { "type": "Point", "coordinates": [ -117.1599278, 32.831168 ] } },
{ "type": "Feature", "properties": { "name": "Tracy Gady D.D.S.", "amenity": "dentist" }, "geometry": { "type": "Point", "coordinates": [ -117.160604, 32.8316517 ] } },
{ "type": "Feature", "properties": { "name": "Spring Leaf", "amenity": "bank" }, "geometry": { "type": "Point", "coordinates": [ -117.1605932, 32.8318516 ] } },
{ "type": "Feature", "properties": { "name": "Lolita's Taco Shop", "amenity": "fast_food" }, "geometry": { "type": "Point", "coordinates": [ -117.160593, 32.8323833 ] } },
{ "type": "Feature", "properties": { "name": "Ozone Billiard Cafe", "amenity": "restaurant" }, "geometry": { "type": "Point", "coordinates": [ -117.1528652, 32.8301008 ] } },
{ "type": "Feature", "properties": { "name": "Sharetea", "amenity": "cafe" }, "geometry": { "type": "Point", "coordinates": [ -117.1528785, 32.8301874 ] } },
{ "type": "Feature", "properties": { "name": "Pho Kitchen", "amenity": "restaurant" }, "geometry": { "type": "Point", "coordinates": [ -117.1967641, 32.7648128 ] } },
{ "type": "Feature", "properties": { "name": "Subway", "amenity": "fast_food" }, "geometry": { "type": "Point", "coordinates": [ -117.1973151, 32.7647161 ] } },
{ "type": "Feature", "properties": { "name": "Social Hookah Lounge", "amenity": "hookah_bar" }, "geometry": { "type": "Point", "coordinates": [ -117.1958694, 32.7660239 ] } },
{ "type": "Feature", "properties": { "name": "Domino's", "amenity": "fast_food" }, "geometry": { "type": "Point", "coordinates": [ -117.195635, 32.766284 ] } },
{ "type": "Feature", "properties": { "name": "Salvation House", "amenity": "place_of_worship" }, "geometry": { "type": "Point", "coordinates": [ -117.1607992, 32.8079411 ] } },
{ "type": "Feature", "properties": { "name": "Domino's", "amenity": "fast_food" }, "geometry": { "type": "Point", "coordinates": [ -117.160702, 32.8082209 ] } },
{ "type": "Feature", "properties": { "name": "Shell service station car wash", "amenity": "car_wash" }, "geometry": { "type": "Point", "coordinates": [ -117.2027306, 32.7908123 ] } },
{ "type": "Feature", "properties": { "name": "Ross Elementary School", "amenity": "school" }, "geometry": { "type": "Point", "coordinates": [ -117.1615184, 32.8117796 ] } },
{ "type": "Feature", "properties": { "name": "Koon Thai Kitchen", "amenity": "restaurant" }, "geometry": { "type": "Point", "coordinates": [ -117.1537677, 32.8145604 ] } },
{ "type": "Feature", "properties": { "name": "Carl's Jr.", "amenity": "fast_food" }, "geometry": { "type": "Point", "coordinates": [ -117.1522909, 32.813329 ] } },
{ "type": "Feature", "properties": { "name": "USPS", "amenity": "post_box" }, "geometry": { "type": "Point", "coordinates": [ -117.150485, 32.8157134 ] } },
{ "type": "Feature", "properties": { "name": "Christy's Donuts", "amenity": "fast_food" }, "geometry": { "type": "Point", "coordinates": [ -117.1406667, 32.810275 ] } },
{ "type": "Feature", "properties": { "name": "The Church of Jesus Christ of Latter-day Saints", "amenity": "place_of_worship" }, "geometry": { "type": "Point", "coordinates": [ -117.1644783, 32.8075489 ] } },
{ "type": "Feature", "properties": { "name": "Clairemont Covenant Church", "amenity": "place_of_worship" }, "geometry": { "type": "Point", "coordinates": [ -117.1836456, 32.8103266 ] } },
{ "type": "Feature", "properties": { "name": "Saint Marks United Methodist Church", "amenity": "place_of_worship" }, "geometry": { "type": "Point", "coordinates": [ -117.2003921, 32.8044034 ] } },
{ "type": "Feature", "properties": { "name": "Ostler Street Meetinghouse", "amenity": "place_of_worship" }, "geometry": { "type": "Point", "coordinates": [ -117.1724026, 32.7931181 ] } },
{ "type": "Feature", "properties": { "name": "Linda Vista Elementary School", "amenity": "school" }, "geometry": { "type": "Point", "coordinates": [ -117.1736523, 32.7930199 ] } },
{ "type": "Feature", "properties": { "name": "USPS", "amenity": "post_box" }, "geometry": { "type": "Point", "coordinates": [ -117.119374, 32.8066764 ] } },
{ "type": "Feature", "properties": { "name": "McDonald's", "amenity": "fast_food" }, "geometry": { "type": "Point", "coordinates": [ -117.1159637, 32.8053548 ] } },
{ "type": "Feature", "properties": { "name": "Saint Anthony Orthodox Church", "amenity": "place_of_worship" }, "geometry": { "type": "Point", "coordinates": [ -117.164752, 32.7960138 ] } },
{ "type": "Feature", "properties": { "name": "Shell", "amenity": "fuel" }, "geometry": { "type": "Point", "coordinates": [ -117.2029116, 32.7906454 ] } },
{ "type": "Feature", "properties": { "name": "The Vine", "amenity": "kindergarten" }, "geometry": { "type": "Point", "coordinates": [ -117.1732034, 32.7752966 ] } },
{ "type": "Feature", "properties": { "name": "Peace Lutheran Church", "amenity": "place_of_worship" }, "geometry": { "type": "Point", "coordinates": [ -117.1740861, 32.7807273 ] } },
{ "type": "Feature", "properties": { "name": "Clairemont Bible Baptist Church", "amenity": "place_of_worship" }, "geometry": { "type": "Point", "coordinates": [ -117.1839234, 32.8056045 ] } },
{ "type": "Feature", "properties": { "name": "Korean United Methodist Church", "amenity": "place_of_worship" }, "geometry": { "type": "Point", "coordinates": [ -117.1845988, 32.8022796 ] } },
{ "type": "Feature", "properties": { "name": "Clairmont Branch San Diego Public Library", "amenity": "library" }, "geometry": { "type": "Point", "coordinates": [ -117.1939238, 32.7936602 ] } },
{ "type": "Feature", "properties": { "name": "Clairemont Emmanuel Baptist Church", "amenity": "place_of_worship" }, "geometry": { "type": "Point", "coordinates": [ -117.2003128, 32.7892159 ] } },
{ "type": "Feature", "properties": { "name": "First Oriental Mission Church", "amenity": "place_of_worship" }, "geometry": { "type": "Point", "coordinates": [ -117.2003128, 32.7892159 ] } },
{ "type": "Feature", "properties": { "name": "Oggi's Pizza & Brewing Co.", "amenity": "restaurant" }, "geometry": { "type": "Point", "coordinates": [ -117.1289561, 32.7798285 ] } },
{ "type": "Feature", "properties": { "name": "San Diego Public Library", "amenity": "library" }, "geometry": { "type": "Point", "coordinates": [ -117.1269632, 32.7793639 ] } },
{ "type": "Feature", "properties": { "name": "Dragon Chinese Cuisine", "amenity": "restaurant" }, "geometry": { "type": "Point", "coordinates": [ -117.128307, 32.779709 ] } },
{ "type": "Feature", "properties": { "name": "Wells Fargo", "amenity": "atm" }, "geometry": { "type": "Point", "coordinates": [ -117.129585, 32.7804588 ] } },
{ "type": "Feature", "properties": { "name": "Islands", "amenity": "restaurant" }, "geometry": { "type": "Point", "coordinates": [ -117.130372, 32.781621 ] } },
{ "type": "Feature", "properties": { "name": "Champs Lounge", "amenity": "bar" }, "geometry": { "type": "Point", "coordinates": [ -117.193919, 32.795922 ] } },
{ "type": "Feature", "properties": { "name": "Mountain Mike's Pizza", "amenity": "restaurant" }, "geometry": { "type": "Point", "coordinates": [ -117.1925002, 32.795959 ] } },
{ "type": "Feature", "properties": { "name": "Eight Church of Christ Scientist", "amenity": "place_of_worship" }, "geometry": { "type": "Point", "coordinates": [ -117.198924, 32.8028266 ] } },
{ "type": "Feature", "properties": { "name": "San Diego Korean Evangelical Church", "amenity": "place_of_worship" }, "geometry": { "type": "Point", "coordinates": [ -117.1994795, 32.8036599 ] } },
{ "type": "Feature", "properties": { "name": "Holy Cross Lutheran Church of Missouri Synod", "amenity": "place_of_worship" }, "geometry": { "type": "Point", "coordinates": [ -117.1997003, 32.8037885 ] } },
{ "type": "Feature", "properties": { "name": "Whittier School", "amenity": "school" }, "geometry": { "type": "Point", "coordinates": [ -117.197331, 32.8037652 ] } },
{ "type": "Feature", "properties": { "name": "Golden State Driving School", "amenity": "driving_school" }, "geometry": { "type": "Point", "coordinates": [ -117.1925766, 32.7951696 ] } },
{ "type": "Feature", "properties": { "name": "Baskin-Robbins", "amenity": "ice_cream" }, "geometry": { "type": "Point", "coordinates": [ -117.19271, 32.7952269 ] } },
{ "type": "Feature", "properties": { "name": "The UPS Store", "amenity": "post_office" }, "geometry": { "type": "Point", "coordinates": [ -117.1926393, 32.7951937 ] } },
{ "type": "Feature", "properties": { "name": "Rite Aid Pharmacy", "amenity": "pharmacy" }, "geometry": { "type": "Point", "coordinates": [ -117.1926255, 32.7954273 ] } },
{ "type": "Feature", "properties": { "name": "Farmer's Table", "amenity": "restaurant" }, "geometry": { "type": "Point", "coordinates": [ -117.1921795, 32.795074 ] } },
{ "type": "Feature", "properties": { "name": "Trislers Wine Bar", "amenity": "bar" }, "geometry": { "type": "Point", "coordinates": [ -117.146851, 32.772966 ] } },
{ "type": "Feature", "properties": { "name": "Taco Bell", "amenity": "fast_food" }, "geometry": { "type": "Point", "coordinates": [ -117.1430845, 32.7696641 ] } },
{ "type": "Feature", "properties": { "name": "Buffalo Wild Wings", "amenity": "restaurant" }, "geometry": { "type": "Point", "coordinates": [ -117.1461411, 32.7696697 ] } },
{ "type": "Feature", "properties": { "name": "Tender Greens", "amenity": "restaurant" }, "geometry": { "type": "Point", "coordinates": [ -117.1472032, 32.7695093 ] } },
{ "type": "Feature", "properties": { "name": "Starbucks", "amenity": "cafe" }, "geometry": { "type": "Point", "coordinates": [ -117.1497371, 32.7707075 ] } },
{ "type": "Feature", "properties": { "name": "California College - San Diego", "amenity": "school" }, "geometry": { "type": "Point", "coordinates": [ -117.131855, 32.7710006 ] } },
{ "type": "Feature", "properties": { "name": "Grace Brethren Church", "amenity": "place_of_worship" }, "geometry": { "type": "Point", "coordinates": [ -117.1578248, 32.8069233 ] } },
{ "type": "Feature", "properties": { "name": "Nihon Cllinic", "amenity": "clinic" }, "geometry": { "type": "Point", "coordinates": [ -117.2012545, 32.8086081 ] } },
{ "type": "Feature", "properties": { "name": "San Diego County Credit Union", "amenity": "bank" }, "geometry": { "type": "Point", "coordinates": [ -117.130506, 32.8332017 ] } },
{ "type": "Feature", "properties": { "name": "The Daily Bagel", "amenity": "cafe" }, "geometry": { "type": "Point", "coordinates": [ -117.1279042, 32.8319658 ] } },
{ "type": "Feature", "properties": { "name": "Taco Bell", "amenity": "fast_food" }, "geometry": { "type": "Point", "coordinates": [ -117.1307052, 32.8319273 ] } },
{ "type": "Feature", "properties": { "name": "Spectrum Dental", "amenity": "dentist" }, "geometry": { "type": "Point", "coordinates": [ -117.1384882, 32.8308891 ] } },
{ "type": "Feature", "properties": { "name": "McDonald's", "amenity": "fast_food" }, "geometry": { "type": "Point", "coordinates": [ -117.1357852, 32.8310527 ] } },
{ "type": "Feature", "properties": { "name": "Quantum Brewing", "amenity": "bar" }, "geometry": { "type": "Point", "coordinates": [ -117.1392716, 32.8306577 ] } },
{ "type": "Feature", "properties": { "name": "Gotcha", "amenity": "cafe" }, "geometry": { "type": "Point", "coordinates": [ -117.1391202, 32.8306569 ] } },
{ "type": "Feature", "properties": { "name": "Golden City", "amenity": "restaurant" }, "geometry": { "type": "Point", "coordinates": [ -117.1386603, 32.8307385 ] } },
{ "type": "Feature", "properties": { "name": "Robek's Smoothies", "amenity": "fast_food" }, "geometry": { "type": "Point", "coordinates": [ -117.130566, 32.8306361 ] } },
{ "type": "Feature", "properties": { "name": "Palominos Mexican & Seafood", "amenity": "fast_food" }, "geometry": { "type": "Point", "coordinates": [ -117.1278709, 32.8307654 ] } },
{ "type": "Feature", "properties": { "name": "Adrian's Surf N' Turf Grill", "amenity": "fast_food" }, "geometry": { "type": "Point", "coordinates": [ -117.1281519, 32.8307974 ] } },
{ "type": "Feature", "properties": { "name": "WaBa Grill", "amenity": "restaurant" }, "geometry": { "type": "Point", "coordinates": [ -117.1279468, 32.8308025 ] } },
{ "type": "Feature", "properties": { "name": "Burros & Fries", "amenity": "fast_food" }, "geometry": { "type": "Point", "coordinates": [ -117.130339, 32.8310356 ] } },
{ "type": "Feature", "properties": { "name": "Tigris Mediterranean Grille", "amenity": "restaurant" }, "geometry": { "type": "Point", "coordinates": [ -117.130467, 32.8306417 ] } },
{ "type": "Feature", "properties": { "name": "Jersey Mike's Subs", "amenity": "fast_food" }, "geometry": { "type": "Point", "coordinates": [ -117.1304857, 32.8310434 ] } },
{ "type": "Feature", "properties": { "name": "Park Social", "amenity": "restaurant" }, "geometry": { "type": "Point", "coordinates": [ -117.13987, 32.8278771 ] } },
{ "type": "Feature", "properties": { "name": "Rio Vista Family Dentistry", "amenity": "dentist" }, "geometry": { "type": "Point", "coordinates": [ -117.1446135, 32.7760168 ] } },
{ "type": "Feature", "properties": { "name": "O's American Kitchen", "amenity": "restaurant" }, "geometry": { "type": "Point", "coordinates": [ -117.1445599, 32.7757225 ] } },
{ "type": "Feature", "properties": { "name": "Ka Prao", "amenity": "restaurant" }, "geometry": { "type": "Point", "coordinates": [ -117.1445633, 32.7757764 ] } },
{ "type": "Feature", "properties": { "name": "Daphne's Greek Cafe", "amenity": "fast_food" }, "geometry": { "type": "Point", "coordinates": [ -117.1438904, 32.775349 ] } },
{ "type": "Feature", "properties": { "name": "Pat & Oscar's", "amenity": "fast_food" }, "geometry": { "type": "Point", "coordinates": [ -117.1445142, 32.7756437 ] } },
{ "type": "Feature", "properties": { "name": "Sombrero", "amenity": "fast_food" }, "geometry": { "type": "Point", "coordinates": [ -117.1446046, 32.7758984 ] } },
{ "type": "Feature", "properties": { "name": "USAA", "amenity": "atm" }, "geometry": { "type": "Point", "coordinates": [ -117.145135, 32.7748683 ] } },
{ "type": "Feature", "properties": { "name": "Wahoo's Fish Tacos", "amenity": "fast_food" }, "geometry": { "type": "Point", "coordinates": [ -117.1423937, 32.7751552 ] } },
{ "type": "Feature", "properties": { "name": "Church of Christ", "amenity": "place_of_worship" }, "geometry": { "type": "Point", "coordinates": [ -117.1917406, 32.7685328 ] } },
{ "type": "Feature", "properties": { "name": "La Paloma", "amenity": "restaurant" }, "geometry": { "type": "Point", "coordinates": [ -117.1939564, 32.7702969 ] } },
{ "type": "Feature", "properties": { "name": "Morena Club", "amenity": "bar" }, "geometry": { "type": "Point", "coordinates": [ -117.201836, 32.772083 ] } },
{ "type": "Feature", "properties": { "name": "Science of Mind Church", "amenity": "place_of_worship" }, "geometry": { "type": "Point", "coordinates": [ -117.2022573, 32.7714385 ] } },
{ "type": "Feature", "properties": { "name": "Coronado Brewing Company", "amenity": "pub" }, "geometry": { "type": "Point", "coordinates": [ -117.2045281, 32.7718956 ] } },
{ "type": "Feature", "properties": { "name": "Copley Library", "amenity": "library" }, "geometry": { "type": "Point", "coordinates": [ -117.1934514, 32.7714119 ] } },
{ "type": "Feature", "properties": { "name": "U.S. Bank", "amenity": "bank" }, "geometry": { "type": "Point", "coordinates": [ -117.1883262, 32.7724724 ] } },
{ "type": "Feature", "properties": { "name": "US Bank ATM", "amenity": "atm" }, "geometry": { "type": "Point", "coordinates": [ -117.1885408, 32.7724499 ] } },
{ "type": "Feature", "properties": { "name": "Camino Hall", "amenity": "university" }, "geometry": { "type": "Point", "coordinates": [ -117.1928109, 32.771435 ] } },
{ "type": "Feature", "properties": { "name": "Pardee Legal Research Center", "amenity": "library" }, "geometry": { "type": "Point", "coordinates": [ -117.1874672, 32.7717012 ] } },
{ "type": "Feature", "properties": { "name": "San Diego City Fire Station 25", "amenity": "fire_station" }, "geometry": { "type": "Point", "coordinates": [ -117.2065266, 32.781827 ] } },
{ "type": "Feature", "properties": { "name": "Santana's Fresh MXN Food", "amenity": "fast_food" }, "geometry": { "type": "Point", "coordinates": [ -117.206786, 32.782009 ] } },
{ "type": "Feature", "properties": { "name": "Fashion Careers College", "amenity": "school" }, "geometry": { "type": "Point", "coordinates": [ -117.2069181, 32.7809415 ] } },
{ "type": "Feature", "properties": { "name": "High Dive Bar", "amenity": "bar" }, "geometry": { "type": "Point", "coordinates": [ -117.2073404, 32.7794917 ] } },
{ "type": "Feature", "properties": { "name": "Silver Spigot", "amenity": "bar" }, "geometry": { "type": "Point", "coordinates": [ -117.206182, 32.785243 ] } },
{ "type": "Feature", "properties": { "name": "JV's Mexican Food", "amenity": "restaurant" }, "geometry": { "type": "Point", "coordinates": [ -117.1997609, 32.7670673 ] } },
{ "type": "Feature", "properties": { "name": "Sardina's", "amenity": "restaurant" }, "geometry": { "type": "Point", "coordinates": [ -117.2004741, 32.7692765 ] } },
{ "type": "Feature", "properties": { "name": "Del Taco", "amenity": "fast_food" }, "geometry": { "type": "Point", "coordinates": [ -117.201306, 32.811433 ] } },
{ "type": "Feature", "properties": { "name": "Starbucks", "amenity": "cafe" }, "geometry": { "type": "Point", "coordinates": [ -117.2006023, 32.8114043 ] } },
{ "type": "Feature", "properties": { "name": "Serra Mesa Christian Fellowship", "amenity": "place_of_worship" }, "geometry": { "type": "Point", "coordinates": [ -117.1447217, 32.7936209 ] } },
{ "type": "Feature", "properties": { "name": "Saint George Serbian Orthodox Church", "amenity": "place_of_worship" }, "geometry": { "type": "Point", "coordinates": [ -117.2019796, 32.7944934 ] } },
{ "type": "Feature", "properties": { "name": "K's Sandwiches", "amenity": "restaurant" }, "geometry": { "type": "Point", "coordinates": [ -117.1583133, 32.8011674 ] } },
{ "type": "Feature", "properties": { "name": "Rose Donuts", "amenity": "cafe" }, "geometry": { "type": "Point", "coordinates": [ -117.1578147, 32.8018921 ] } },
{ "type": "Feature", "properties": { "name": "Digital Media and Design Senior High School", "amenity": "school" }, "geometry": { "type": "Point", "coordinates": [ -117.159025, 32.8010224 ] } },
{ "type": "Feature", "properties": { "name": "International Business Senior High School", "amenity": "school" }, "geometry": { "type": "Point", "coordinates": [ -117.159025, 32.8010224 ] } },
{ "type": "Feature", "properties": { "name": "Lupes Mexican Eatery", "amenity": "restaurant" }, "geometry": { "type": "Point", "coordinates": [ -117.1572945, 32.8014973 ] } },
{ "type": "Feature", "properties": { "name": "Sweet Labors", "amenity": "cafe" }, "geometry": { "type": "Point", "coordinates": [ -117.1553897, 32.7983657 ] } },
{ "type": "Feature", "properties": { "name": "McDonald's", "amenity": "fast_food" }, "geometry": { "type": "Point", "coordinates": [ -117.152153, 32.798489 ] } },
{ "type": "Feature", "properties": { "name": "Mission Village Christian Fellowship Church", "amenity": "place_of_worship" }, "geometry": { "type": "Point", "coordinates": [ -117.1256311, 32.7928828 ] } },
{ "type": "Feature", "properties": { "name": "San Diego Community College District - District Office", "amenity": "public_building" }, "geometry": { "type": "Point", "coordinates": [ -117.1203786, 32.7762174 ] } },
{ "type": "Feature", "properties": { "name": "San Diego Korean United Baptist Church", "amenity": "place_of_worship" }, "geometry": { "type": "Point", "coordinates": [ -117.2013488, 32.7786184 ] } },
{ "type": "Feature", "properties": { "name": "Saint Mary Magdalene Church", "amenity": "place_of_worship" }, "geometry": { "type": "Point", "coordinates": [ -117.1998742, 32.7799915 ] } },
{ "type": "Feature", "properties": { "name": "School of the Madeleine", "amenity": "school" }, "geometry": { "type": "Point", "coordinates": [ -117.1988076, 32.7793041 ] } },
{ "type": "Feature", "properties": { "name": "Cotixan", "amenity": "restaurant" }, "geometry": { "type": "Point", "coordinates": [ -117.139733, 32.802293 ] } },
{ "type": "Feature", "properties": { "name": "USPS", "amenity": "post_box" }, "geometry": { "type": "Point", "coordinates": [ -117.139968, 32.8015161 ] } },
{ "type": "Feature", "properties": { "name": "USPS", "amenity": "post_box" }, "geometry": { "type": "Point", "coordinates": [ -117.140097, 32.8015316 ] } },
{ "type": "Feature", "properties": { "name": "USPS", "amenity": "post_box" }, "geometry": { "type": "Point", "coordinates": [ -117.140092, 32.8015396 ] } },
{ "type": "Feature", "properties": { "name": "Serra Mesa Post Office", "amenity": "post_office" }, "geometry": { "type": "Point", "coordinates": [ -117.139865, 32.8015163 ] } },
{ "type": "Feature", "properties": { "name": "Arco", "amenity": "fuel" }, "geometry": { "type": "Point", "coordinates": [ -117.0956258, 33.1168797 ] } },
{ "type": "Feature", "properties": { "name": "Gilbeys Cocktail Lounge", "amenity": "bar" }, "geometry": { "type": "Point", "coordinates": [ -117.094964, 33.117026 ] } },
{ "type": "Feature", "properties": { "name": "Starbucks", "amenity": "cafe" }, "geometry": { "type": "Point", "coordinates": [ -117.1009209, 33.1128715 ] } },
{ "type": "Feature", "properties": { "name": "Panera Bread", "amenity": "fast_food" }, "geometry": { "type": "Point", "coordinates": [ -117.101447, 33.113333 ] } },
{ "type": "Feature", "properties": { "name": "Orange Glen Elementary School", "amenity": "school" }, "geometry": { "type": "Point", "coordinates": [ -117.0355862, 33.1453171 ] } },
{ "type": "Feature", "properties": { "name": "Deer Park Monastery", "amenity": "place_of_worship" }, "geometry": { "type": "Point", "coordinates": [ -117.0736788, 33.1868354 ] } },
{ "type": "Feature", "properties": { "name": "Bear Valley School", "amenity": "school" }, "geometry": { "type": "Point", "coordinates": [ -116.9705842, 33.1753165 ] } },
{ "type": "Feature", "properties": { "name": "Libreria Cristiana Emanuel", "amenity": "library" }, "geometry": { "type": "Point", "coordinates": [ -117.0669227, 33.1295753 ] } },
{ "type": "Feature", "properties": { "name": "Jack in the Box", "amenity": "fast_food" }, "geometry": { "type": "Point", "coordinates": [ -117.062968, 33.132753 ] } },
{ "type": "Feature", "properties": { "name": "Family Forces", "amenity": "social_facility" }, "geometry": { "type": "Point", "coordinates": [ -117.0707472, 33.1294788 ] } },
{ "type": "Feature", "properties": { "name": "Iglesia de Jesucristo", "amenity": "place_of_worship" }, "geometry": { "type": "Point", "coordinates": [ -117.0747478, 33.126788 ] } },
{ "type": "Feature", "properties": { "name": "Seventh Day Adventist Church", "amenity": "place_of_worship" }, "geometry": { "type": "Point", "coordinates": [ -117.0833653, 33.1169846 ] } },
{ "type": "Feature", "properties": { "name": "Palomar Driving School", "amenity": "school" }, "geometry": { "type": "Point", "coordinates": [ -117.0764785, 33.1097851 ] } },
{ "type": "Feature", "properties": { "name": "Westminster Presbyterian Church", "amenity": "place_of_worship" }, "geometry": { "type": "Point", "coordinates": [ -117.0685644, 33.1101909 ] } },
{ "type": "Feature", "properties": { "name": "Palomar College Police", "amenity": "police" }, "geometry": { "type": "Point", "coordinates": [ -117.0523484, 33.1361015 ] } },
{ "type": "Feature", "properties": { "name": "Ernest J. Allen Library", "amenity": "library" }, "geometry": { "type": "Point", "coordinates": [ -117.0520982, 33.1357967 ] } },
{ "type": "Feature", "properties": { "name": "McDonald's", "amenity": "fast_food" }, "geometry": { "type": "Point", "coordinates": [ -117.0705673, 33.0714643 ] } },
{ "type": "Feature", "properties": { "name": "Starbucks", "amenity": "cafe" }, "geometry": { "type": "Point", "coordinates": [ -117.0703191, 33.0708679 ] } },
{ "type": "Feature", "properties": { "name": "Subway", "amenity": "fast_food" }, "geometry": { "type": "Point", "coordinates": [ -117.0709561, 33.0709309 ] } },
{ "type": "Feature", "properties": { "name": "Shell", "amenity": "fuel" }, "geometry": { "type": "Point", "coordinates": [ -117.0670402, 33.0682285 ] } },
{ "type": "Feature", "properties": { "name": "Neighborhood Healthcare", "amenity": "clinic" }, "geometry": { "type": "Point", "coordinates": [ -117.0727657, 33.128712 ] } },
{ "type": "Feature", "properties": { "name": "Redbox", "amenity": "vending_machine" }, "geometry": { "type": "Point", "coordinates": [ -117.0926793, 33.1355935 ] } },
{ "type": "Feature", "properties": { "name": "Apostolic Temple", "amenity": "place_of_worship" }, "geometry": { "type": "Point", "coordinates": [ -117.0911432, 33.1322618 ] } },
{ "type": "Feature", "properties": { "name": "Center for the Performing Arts, Escondido", "amenity": "arts_centre" }, "geometry": { "type": "Point", "coordinates": [ -117.0927607, 33.1403662 ] } },
{ "type": "Feature", "properties": { "name": "Papa John's", "amenity": "fast_food" }, "geometry": { "type": "Point", "coordinates": [ -117.092804, 33.139103 ] } },
{ "type": "Feature", "properties": { "name": "Mila's Centre City Cafe", "amenity": "cafe" }, "geometry": { "type": "Point", "coordinates": [ -117.0715499, 33.0878053 ] } },
{ "type": "Feature", "properties": { "name": "Hacienda De Vega", "amenity": "restaurant" }, "geometry": { "type": "Point", "coordinates": [ -117.0716311, 33.0886566 ] } },
{ "type": "Feature", "properties": { "name": "Shell", "amenity": "fuel" }, "geometry": { "type": "Point", "coordinates": [ -117.0706452, 33.0702053 ] } },
{ "type": "Feature", "properties": { "name": "Quiznos", "amenity": "fast_food" }, "geometry": { "type": "Point", "coordinates": [ -117.0702574, 33.0702689 ] } },
{ "type": "Feature", "properties": { "name": "Pizza Bueno", "amenity": "fast_food" }, "geometry": { "type": "Point", "coordinates": [ -117.0734839, 33.1035451 ] } },
{ "type": "Feature", "properties": { "name": "Five Points Bar", "amenity": "bar" }, "geometry": { "type": "Point", "coordinates": [ -117.071545, 33.101576 ] } },
{ "type": "Feature", "properties": { "name": "Chase", "amenity": "bank" }, "geometry": { "type": "Point", "coordinates": [ -117.0737874, 33.1040821 ] } },
{ "type": "Feature", "properties": { "name": "Bamboo House Chinese Restaurant", "amenity": "restaurant" }, "geometry": { "type": "Point", "coordinates": [ -117.050781, 33.1365248 ] } },
{ "type": "Feature", "properties": { "name": "Nicolaysen Center", "amenity": "school" }, "geometry": { "type": "Point", "coordinates": [ -117.0369751, 33.1436505 ] } },
{ "type": "Feature", "properties": { "name": "Sheared Sheep", "amenity": "cafe" }, "geometry": { "type": "Point", "coordinates": [ -116.9972914, 33.1018989 ] } },
{ "type": "Feature", "properties": { "name": "Kibo Cones & Snacks", "amenity": "fast_food" }, "geometry": { "type": "Point", "coordinates": [ -116.9990258, 33.0983682 ] } },
{ "type": "Feature", "properties": { "name": "Rift Sand Bar", "amenity": "bar" }, "geometry": { "type": "Point", "coordinates": [ -116.998592, 33.0970103 ] } },
{ "type": "Feature", "properties": { "name": "Oasis Deli", "amenity": "cafe" }, "geometry": { "type": "Point", "coordinates": [ -116.9990375, 33.0984776 ] } },
{ "type": "Feature", "properties": { "name": "Macan Market", "amenity": "cafe" }, "geometry": { "type": "Point", "coordinates": [ -116.9971309, 33.100779 ] } },
{ "type": "Feature", "properties": { "name": "Thorntree Terrace", "amenity": "cafe" }, "geometry": { "type": "Point", "coordinates": [ -116.9995185, 33.1000846 ] } },
{ "type": "Feature", "properties": { "name": "Mombasa Cooker", "amenity": "cafe" }, "geometry": { "type": "Point", "coordinates": [ -116.9994618, 33.0982944 ] } },
{ "type": "Feature", "properties": { "name": "Domino's", "amenity": "fast_food" }, "geometry": { "type": "Point", "coordinates": [ -117.0862181, 33.1343702 ] } },
{ "type": "Feature", "properties": { "name": "Church of Christ", "amenity": "place_of_worship" }, "geometry": { "type": "Point", "coordinates": [ -117.057809, 33.1261511 ] } },
{ "type": "Feature", "properties": { "name": "The Christadelphians Church", "amenity": "place_of_worship" }, "geometry": { "type": "Point", "coordinates": [ -117.072254, 33.1105961 ] } },
{ "type": "Feature", "properties": { "name": "Woodys Sports Bunker", "amenity": "bar" }, "geometry": { "type": "Point", "coordinates": [ -117.073148, 33.092453 ] } },
{ "type": "Feature", "properties": { "name": "Wells Fargo", "amenity": "atm" }, "geometry": { "type": "Point", "coordinates": [ -117.08517, 33.1208846 ] } },
{ "type": "Feature", "properties": { "name": "Wells Fargo", "amenity": "atm" }, "geometry": { "type": "Point", "coordinates": [ -117.085159, 33.1208681 ] } },
{ "type": "Feature", "properties": { "name": "Bank of America", "amenity": "atm" }, "geometry": { "type": "Point", "coordinates": [ -117.082164, 33.1196106 ] } },
{ "type": "Feature", "properties": { "name": "Dees Sports Tavern", "amenity": "bar" }, "geometry": { "type": "Point", "coordinates": [ -117.059751, 33.134964 ] } },
{ "type": "Feature", "properties": { "name": "Jack in the Box", "amenity": "fast_food" }, "geometry": { "type": "Point", "coordinates": [ -117.072801, 33.1051287 ] } },
{ "type": "Feature", "properties": { "name": "Apostolic Christian Church", "amenity": "place_of_worship" }, "geometry": { "type": "Point", "coordinates": [ -117.0705873, 33.1019852 ] } },
{ "type": "Feature", "properties": { "name": "Sunset Lounge", "amenity": "bar" }, "geometry": { "type": "Point", "coordinates": [ -117.071537, 33.0935024 ] } },
{ "type": "Feature", "properties": { "name": "Calvary Chapel of Hidden Valley", "amenity": "place_of_worship" }, "geometry": { "type": "Point", "coordinates": [ -117.0729834, 33.0920618 ] } },
{ "type": "Feature", "properties": { "name": "New Life Presbyterian Church", "amenity": "place_of_worship" }, "geometry": { "type": "Point", "coordinates": [ -117.0775582, 33.0914138 ] } },
{ "type": "Feature", "properties": { "name": "Taqueria Morelos Mexican Food", "amenity": "fast_food" }, "geometry": { "type": "Point", "coordinates": [ -117.0668394, 33.1294071 ] } },
{ "type": "Feature", "properties": { "name": "CAT/YAR", "amenity": "social_facility" }, "geometry": { "type": "Point", "coordinates": [ -117.0706717, 33.1293619 ] } },
{ "type": "Feature", "properties": { "name": "Hidden Valley Orthodontics", "amenity": "dentist" }, "geometry": { "type": "Point", "coordinates": [ -117.0696866, 33.1284768 ] } },
{ "type": "Feature", "properties": { "name": "Leilani S. Alarcon, D.D.S., Inc.", "amenity": "dentist" }, "geometry": { "type": "Point", "coordinates": [ -117.0696417, 33.1283878 ] } },
{ "type": "Feature", "properties": { "name": "Med-Rx Health Mart", "amenity": "pharmacy" }, "geometry": { "type": "Point", "coordinates": [ -117.0707768, 33.1285386 ] } },
{ "type": "Feature", "properties": { "name": "Quik Korner", "amenity": "fuel" }, "geometry": { "type": "Point", "coordinates": [ -117.0820088, 33.1113423 ] } },
{ "type": "Feature", "properties": { "name": "Church of Christ", "amenity": "place_of_worship" }, "geometry": { "type": "Point", "coordinates": [ -117.0816986, 33.1158736 ] } },
{ "type": "Feature", "properties": { "name": "Church of Christ", "amenity": "place_of_worship" }, "geometry": { "type": "Point", "coordinates": [ -117.0805875, 33.1144847 ] } },
{ "type": "Feature", "properties": { "name": "Kingdom Hall of Jehovahs Witnesses", "amenity": "place_of_worship" }, "geometry": { "type": "Point", "coordinates": [ -117.0780874, 33.1083738 ] } },
{ "type": "Feature", "properties": { "name": "CVS Pharmacy", "amenity": "pharmacy" }, "geometry": { "type": "Point", "coordinates": [ -117.0769581, 33.1034216 ] } },
{ "type": "Feature", "properties": { "name": "Subway", "amenity": "fast_food" }, "geometry": { "type": "Point", "coordinates": [ -117.076878, 33.1045 ] } },
{ "type": "Feature", "properties": { "name": "Pick Up Stix", "amenity": "fast_food" }, "geometry": { "type": "Point", "coordinates": [ -117.0751041, 33.1005259 ] } },
{ "type": "Feature", "properties": { "name": "Papa John's", "amenity": "fast_food" }, "geometry": { "type": "Point", "coordinates": [ -117.0755102, 33.102496 ] } },
{ "type": "Feature", "properties": { "name": "Jersey Mike's Subs", "amenity": "fast_food" }, "geometry": { "type": "Point", "coordinates": [ -117.0750922, 33.1018221 ] } },
{ "type": "Feature", "properties": { "name": "Wells Fargo", "amenity": "bank" }, "geometry": { "type": "Point", "coordinates": [ -117.0756757, 33.1024076 ] } },
{ "type": "Feature", "properties": { "name": "Church of the Nazarene", "amenity": "place_of_worship" }, "geometry": { "type": "Point", "coordinates": [ -117.0780875, 33.1011519 ] } },
{ "type": "Feature", "properties": { "name": "Pizza Hut", "amenity": "restaurant" }, "geometry": { "type": "Point", "coordinates": [ -117.0759644, 33.1044757 ] } },
{ "type": "Feature", "properties": { "name": "The Smile Gallery - Dr. Bainer", "amenity": "dentist" }, "geometry": { "type": "Point", "coordinates": [ -117.068622, 33.1260431 ] } },
{ "type": "Feature", "properties": { "name": "Grand Dentistry", "amenity": "dentist" }, "geometry": { "type": "Point", "coordinates": [ -117.0763613, 33.1239977 ] } },
{ "type": "Feature", "properties": { "name": "Cathedral of the Valley Foursquare Church", "amenity": "place_of_worship" }, "geometry": { "type": "Point", "coordinates": [ -117.0589203, 33.1153181 ] } },
{ "type": "Feature", "properties": { "name": "Mariscos Mazatlan Mexican Grill", "amenity": "restaurant" }, "geometry": { "type": "Point", "coordinates": [ -117.0694374, 33.1320066 ] } },
{ "type": "Feature", "properties": { "name": "Patio Playhouse Community & Youtheatre", "amenity": "theatre" }, "geometry": { "type": "Point", "coordinates": [ -117.079564, 33.1221113 ] } },
{ "type": "Feature", "properties": { "name": "Pioneer Room", "amenity": "library" }, "geometry": { "type": "Point", "coordinates": [ -117.0791603, 33.1206845 ] } },
{ "type": "Feature", "properties": { "name": "Bethel Assembly Christian Evangelistic Church", "amenity": "place_of_worship" }, "geometry": { "type": "Point", "coordinates": [ -117.0478087, 33.1475392 ] } },
{ "type": "Feature", "properties": { "name": "Community Lutheran", "amenity": "place_of_worship" }, "geometry": { "type": "Point", "coordinates": [ -117.0299052, 33.1600321 ] } },
{ "type": "Feature", "properties": { "name": "Souplantation", "amenity": "restaurant" }, "geometry": { "type": "Point", "coordinates": [ -117.098963, 33.111009 ] } },
{ "type": "Feature", "properties": { "name": "Fire Station #6", "amenity": "fire_station" }, "geometry": { "type": "Point", "coordinates": [ -117.1021854, 33.1050047 ] } },
{ "type": "Feature", "properties": { "name": "Vintana", "amenity": "restaurant" }, "geometry": { "type": "Point", "coordinates": [ -117.0967928, 33.1072898 ] } },
{ "type": "Feature", "properties": { "name": "Westminster Theological Seminary in California", "amenity": "school" }, "geometry": { "type": "Point", "coordinates": [ -117.0471479, 33.1226178 ] } },
{ "type": "Feature", "properties": { "name": "San Diego Dental Care", "amenity": "dentist" }, "geometry": { "type": "Point", "coordinates": [ -117.0706829, 33.1285713 ] } },
{ "type": "Feature", "properties": { "name": "Victory Outreach", "amenity": "place_of_worship" }, "geometry": { "type": "Point", "coordinates": [ -117.0682377, 33.1319184 ] } },
{ "type": "Feature", "properties": { "name": "DrugCo Pharmacy", "amenity": "pharmacy" }, "geometry": { "type": "Point", "coordinates": [ -117.0668128, 33.1293534 ] } },
{ "type": "Feature", "properties": { "name": "Baskin-Robbins", "amenity": "ice_cream" }, "geometry": { "type": "Point", "coordinates": [ -117.0655922, 33.1301309 ] } },
{ "type": "Feature", "properties": { "name": "Ranger Station", "amenity": "ranger_station" }, "geometry": { "type": "Point", "coordinates": [ -117.0495576, 33.1597773 ] } },
{ "type": "Feature", "properties": { "name": "Oak Hill Elementary School", "amenity": "school" }, "geometry": { "type": "Point", "coordinates": [ -117.0503088, 33.1308731 ] } },
{ "type": "Feature", "properties": { "name": "Starbucks", "amenity": "cafe" }, "geometry": { "type": "Point", "coordinates": [ -117.0750312, 33.1017545 ] } },
{ "type": "Feature", "properties": { "name": "Domino's", "amenity": "fast_food" }, "geometry": { "type": "Point", "coordinates": [ -117.075359, 33.1047453 ] } },
{ "type": "Feature", "properties": { "name": "Wells Fargo", "amenity": "atm" }, "geometry": { "type": "Point", "coordinates": [ -117.084819, 33.1208368 ] } },
{ "type": "Feature", "properties": { "name": "Iglesia Latina Emmanuel", "amenity": "place_of_worship" }, "geometry": { "type": "Point", "coordinates": [ -117.0780874, 33.1189291 ] } },
{ "type": "Feature", "properties": { "name": "Chevron", "amenity": "fuel" }, "geometry": { "type": "Point", "coordinates": [ -117.0664807, 33.0680042 ] } },
{ "type": "Feature", "properties": { "name": "Saint Timothy Church", "amenity": "place_of_worship" }, "geometry": { "type": "Point", "coordinates": [ -117.054108, 33.083691 ] } },
{ "type": "Feature", "properties": { "name": "Del Taco", "amenity": "fast_food" }, "geometry": { "type": "Point", "coordinates": [ -117.089971, 33.13999 ] } },
{ "type": "Feature", "properties": { "name": "7-Eleven", "amenity": "fuel" }, "geometry": { "type": "Point", "coordinates": [ -117.0928698, 33.1357013 ] } },
{ "type": "Feature", "properties": { "name": "Broadway Baptist Church", "amenity": "place_of_worship" }, "geometry": { "type": "Point", "coordinates": [ -117.0889209, 33.1361506 ] } },
{ "type": "Feature", "properties": { "name": "Yummy Hawaiian Grill", "amenity": "fast_food" }, "geometry": { "type": "Point", "coordinates": [ -117.0842171, 33.1271327 ] } },
{ "type": "Feature", "properties": { "name": "A+ Dental", "amenity": "dentist" }, "geometry": { "type": "Point", "coordinates": [ -117.0870608, 33.129158 ] } },
{ "type": "Feature", "properties": { "name": "Tacos El Portal", "amenity": "fast_food" }, "geometry": { "type": "Point", "coordinates": [ -117.0900442, 33.1286772 ] } },
{ "type": "Feature", "properties": { "name": "Walgreens", "amenity": "pharmacy" }, "geometry": { "type": "Point", "coordinates": [ -117.0844626, 33.1264226 ] } },
{ "type": "Feature", "properties": { "name": "Panda Express", "amenity": "fast_food" }, "geometry": { "type": "Point", "coordinates": [ -117.0745186, 33.1035074 ] } },
{ "type": "Feature", "properties": { "name": "Iglesia Nuevo Apostolica", "amenity": "place_of_worship" }, "geometry": { "type": "Point", "coordinates": [ -117.0745935, 33.126863 ] } },
{ "type": "Feature", "properties": { "name": "Westside Cafe", "amenity": "restaurant" }, "geometry": { "type": "Point", "coordinates": [ -117.0841153, 33.1102774 ] } },
{ "type": "Feature", "properties": { "name": "Del Taco", "amenity": "fast_food" }, "geometry": { "type": "Point", "coordinates": [ -117.058999, 33.133859 ] } },
{ "type": "Feature", "properties": { "name": "Unity Church of Escondido", "amenity": "place_of_worship" }, "geometry": { "type": "Point", "coordinates": [ -117.0853098, 33.1122626 ] } },
{ "type": "Feature", "properties": { "name": "Grace Bible Church", "amenity": "place_of_worship" }, "geometry": { "type": "Point", "coordinates": [ -117.082629, 33.1085641 ] } },
{ "type": "Feature", "properties": { "name": "Marie Callender's", "amenity": "restaurant" }, "geometry": { "type": "Point", "coordinates": [ -117.079517, 33.1076714 ] } },
{ "type": "Feature", "properties": { "name": "San Diego County Credit Union", "amenity": "bank" }, "geometry": { "type": "Point", "coordinates": [ -117.073309, 33.1063172 ] } },
{ "type": "Feature", "properties": { "name": "Subway", "amenity": "fast_food" }, "geometry": { "type": "Point", "coordinates": [ -117.099115, 33.111273 ] } },
{ "type": "Feature", "properties": { "name": "Del Lago Transit Station", "amenity": "bus_station" }, "geometry": { "type": "Point", "coordinates": [ -117.0705311, 33.0721209 ] } },
{ "type": "Feature", "properties": { "name": "Wells Fargo", "amenity": "atm" }, "geometry": { "type": "Point", "coordinates": [ -117.084841, 33.1208665 ] } },
{ "type": "Feature", "properties": { "name": "Starbucks", "amenity": "cafe" }, "geometry": { "type": "Point", "coordinates": [ -117.0853116, 33.1212785 ] } },
{ "type": "Feature", "properties": { "name": "Palomar College", "amenity": "college" }, "geometry": { "type": "Point", "coordinates": [ -117.0518683, 33.137031 ] } },
{ "type": "Feature", "properties": { "name": "Little Caesars", "amenity": "fast_food" }, "geometry": { "type": "Point", "coordinates": [ -117.0436389, 33.1407558 ] } },
{ "type": "Feature", "properties": { "name": "KFC", "amenity": "fast_food" }, "geometry": { "type": "Point", "coordinates": [ -117.041638, 33.141066 ] } },
{ "type": "Feature", "properties": { "name": "Phở Saigon Express", "amenity": "restaurant" }, "geometry": { "type": "Point", "coordinates": [ -117.0849262, 33.1268869 ] } },
{ "type": "Feature", "properties": { "name": "Wells Fargo", "amenity": "atm" }, "geometry": { "type": "Point", "coordinates": [ -117.090277, 33.1286167 ] } },
{ "type": "Feature", "properties": { "name": "Subway", "amenity": "fast_food" }, "geometry": { "type": "Point", "coordinates": [ -117.089803, 33.128576 ] } },
{ "type": "Feature", "properties": { "name": "Wells Fargo", "amenity": "atm" }, "geometry": { "type": "Point", "coordinates": [ -117.090272, 33.1286055 ] } },
{ "type": "Feature", "properties": { "name": "Chicken Plus", "amenity": "restaurant" }, "geometry": { "type": "Point", "coordinates": [ -117.089835, 33.1287454 ] } },
{ "type": "Feature", "properties": { "name": "Fatte's Pizza", "amenity": "fast_food" }, "geometry": { "type": "Point", "coordinates": [ -117.0892755, 33.1300494 ] } },
{ "type": "Feature", "properties": { "name": "Lincoln Avenue Baptist Church", "amenity": "place_of_worship" }, "geometry": { "type": "Point", "coordinates": [ -117.0633646, 33.144206 ] } },
{ "type": "Feature", "properties": { "name": "Quiznos", "amenity": "fast_food" }, "geometry": { "type": "Point", "coordinates": [ -117.062622, 33.133015 ] } },
{ "type": "Feature", "properties": { "name": "Subway", "amenity": "fast_food" }, "geometry": { "type": "Point", "coordinates": [ -117.0635121, 33.1309733 ] } },
{ "type": "Feature", "properties": { "name": "Jamba", "amenity": "fast_food" }, "geometry": { "type": "Point", "coordinates": [ -117.101119, 33.1130287 ] } },
{ "type": "Feature", "properties": { "name": "The UPS Store", "amenity": "post_office" }, "geometry": { "type": "Point", "coordinates": [ -117.099287, 33.1127211 ] } }
]
}
